{
"type": "FeatureCollection",
"name": "lago",
"crs": { "type": "name", "properties": { "name": "urn:ogc:def:crs:EPSG::32720" } },
"features": [
{ "type": "Feature", "properties": { "fid": 21.0, "DN": 1.0 }, "geometry": { "type": "MultiPolygon", "coordinates": [ [ [ [ 361934.999999999883585, 6534745.0 ], [ 361965.000000000465661, 6534745.0 ], [ 361964.999999999476131, 6534685.0 ], [ 361934.999999999534339, 6534685.0 ], [ 361934.999999999883585, 6534745.0 ] ] ] ] } },
{ "type": "Feature", "properties": { "fid": 22.0, "DN": 1.0 }, "geometry": { "type": "MultiPolygon", "coordinates": [ [ [ [ 361904.999999999767169, 6534685.0 ], [ 361934.999999999534339, 6534685.0 ], [ 361935.000000000232831, 6534625.0 ], [ 361904.999999999650754, 6534625.0 ], [ 361904.999999999767169, 6534685.0 ] ] ] ] } },
{ "type": "Feature", "properties": { "fid": 23.0, "DN": 1.0 }, "geometry": { "type": "MultiPolygon", "coordinates": [ [ [ [ 361875.000000000582077, 6534625.000000000931323 ], [ 361904.999999999650754, 6534625.0 ], [ 361904.999999999767169, 6534565.0 ], [ 361874.999999999417923, 6534565.0 ], [ 361875.000000000349246, 6534535.0 ], [ 361844.999999999534339, 6534535.0 ], [ 361845.000000000582077, 6534475.0 ], [ 361815.000000000465661, 6534475.0 ], [ 361815.000000000465661, 6534445.0 ], [ 361784.999999999417923, 6534445.0 ], [ 361784.999999999592546, 6534385.0 ], [ 361754.999999999825377, 6534385.0 ], [ 361754.999999999883585, 6534325.000000000931323 ], [ 361724.999999999825377, 6534325.0 ], [ 361724.999999999767169, 6534295.0 ], [ 361695.000000000582077, 6534295.000000000931323 ], [ 361695.000000000174623, 6534265.0 ], [ 361665.000000000465661, 6534265.0 ], [ 361664.999999999767169, 6534235.0 ], [ 361634.999999999476131, 6534235.0 ], [ 361634.999999999534339, 6534175.0 ], [ 361605.000000000116415, 6534175.0 ], [ 361604.999999999708962, 6534145.0 ], [ 361574.999999999417923, 6534145.0 ], [ 361574.999999999417923, 6534115.0 ], [ 361545.000000000349246, 6534115.0 ], [ 361515.000000000116415, 6534115.0 ], [ 361515.000000000582077, 6534085.0 ], [ 361485.000000000232831, 6534085.0 ], [ 361485.000000000232831, 6534145.0 ], [ 361514.999999999650754, 6534145.0 ], [ 361515.000000000407454, 6534175.0 ], [ 361545.0, 6534175.0 ], [ 361544.999999999767169, 6534205.0 ], [ 361574.999999999767169, 6534205.0 ], [ 361575.0, 6534235.0 ], [ 361605.000000000349246, 6534235.0 ], [ 361604.999999999767169, 6534265.0 ], [ 361634.999999999534339, 6534265.0 ], [ 361634.999999999650754, 6534325.0 ], [ 361664.999999999650754, 6534325.0 ], [ 361665.000000000407454, 6534355.0 ], [ 361695.000000000232831, 6534355.0 ], [ 361695.000000000465661, 6534385.000000000931323 ], [ 361725.000000000116415, 6534385.0 ], [ 361725.000000000116415, 6534415.0 ], [ 361754.999999999767169, 6534415.0 ], [ 361755.000000000582077, 6534475.0 ], [ 361785.000000000465661, 6534475.0 ], [ 361785.000000000058208, 6534505.0 ], [ 361815.000000000291038, 6534505.0 ], [ 361815.000000000582077, 6534565.0 ], [ 361845.000000000582077, 6534564.999999999068677 ], [ 361845.000000000116415, 6534594.999999999068677 ], [ 361874.999999999534339, 6534594.999999998137355 ], [ 361875.000000000582077, 6534625.000000000931323 ] ] ] ] } },
{ "type": "Feature", "properties": { "fid": 25.0, "DN": 1.0 }, "geometry": { "type": "MultiPolygon", "coordinates": [ [ [ [ 359745.000000000465661, 6532105.000000001862645 ], [ 359775.000000000465661, 6532105.000000001862645 ], [ 359775.000000000291038, 6532045.0 ], [ 359745.000000000058208, 6532045.0 ], [ 359745.000000000465661, 6532105.000000001862645 ] ] ] ] } },
{ "type": "Feature", "properties": { "fid": 26.0, "DN": 1.0 }, "geometry": { "type": "MultiPolygon", "coordinates": [ [ [ [ 359775.000000000291038, 6532045.0 ], [ 359805.000000000465661, 6532045.000000001862645 ], [ 359804.999999999941792, 6532015.0 ], [ 359774.999999999650754, 6532015.0 ], [ 359775.000000000291038, 6532045.0 ] ] ] ] } },
{ "type": "Feature", "properties": { "fid": 27.0, "DN": 1.0 }, "geometry": { "type": "MultiPolygon", "coordinates": [ [ [ [ 360014.999999999534339, 6532165.0 ], [ 360105.000000000349246, 6532165.0 ], [ 360105.0, 6532135.0 ], [ 360075.000000000465661, 6532135.0 ], [ 360075.000000000174623, 6532075.000000001862645 ], [ 360045.000000000116415, 6532075.0 ], [ 360045.000000000116415, 6532045.0 ], [ 360015.0, 6532045.000000001862645 ], [ 360014.999999999767169, 6532015.000000001862645 ], [ 359984.999999999476131, 6532014.999999999068677 ], [ 359955.0, 6532015.0 ], [ 359954.999999999534339, 6531985.0 ], [ 359804.999999999650754, 6531985.0 ], [ 359804.999999999941792, 6532015.0 ], [ 359894.999999999476131, 6532015.0 ], [ 359924.999999999883585, 6532015.0 ], [ 359925.000000000582077, 6532045.0 ], [ 359954.999999999650754, 6532045.0 ], [ 359985.000000000640284, 6532045.0 ], [ 359985.000000000523869, 6532135.0 ], [ 360015.0, 6532134.999999999068677 ], [ 360014.999999999534339, 6532165.0 ] ] ] ] } },
{ "type": "Feature", "properties": { "fid": 30.0, "DN": 1.0 }, "geometry": { "type": "MultiPolygon", "coordinates": [ [ [ [ 360824.999999999534339, 6531355.000000000931323 ], [ 360855.000000000582077, 6531355.0 ], [ 360855.000000000407454, 6531295.0 ], [ 360824.999999999825377, 6531295.0 ], [ 360824.999999999534339, 6531355.000000000931323 ] ] ] ] } },
{ "type": "Feature", "properties": { "fid": 32.0, "DN": 1.0 }, "geometry": { "type": "MultiPolygon", "coordinates": [ [ [ [ 360015.000000000349246, 6531265.0 ], [ 360044.999999999417923, 6531265.0 ], [ 360044.999999999534339, 6531235.0 ], [ 360015.000000000582077, 6531235.0 ], [ 360015.000000000349246, 6531265.0 ] ] ] ] } },
{ "type": "Feature", "properties": { "fid": 34.0, "DN": 1.0 }, "geometry": { "type": "MultiPolygon", "coordinates": [ [ [ [ 359444.999999999534339, 6530785.0 ], [ 359535.0, 6530785.000000000931323 ], [ 359534.999999999767169, 6530755.0 ], [ 359444.999999999767169, 6530755.000000000931323 ], [ 359444.999999999534339, 6530785.0 ] ] ] ] } },
{ "type": "Feature", "properties": { "fid": 35.0, "DN": 1.0 }, "geometry": { "type": "MultiPolygon", "coordinates": [ [ [ [ 359535.000000000407454, 6529885.0 ], [ 359595.000000000582077, 6529885.000000000931323 ], [ 359595.000000000058208, 6529855.0 ], [ 359535.000000000465661, 6529855.0 ], [ 359535.000000000407454, 6529885.0 ] ] ] ] } },
{ "type": "Feature", "properties": { "fid": 41.0, "DN": 1.0 }, "geometry": { "type": "MultiPolygon", "coordinates": [ [ [ [ 361604.999999999708962, 6526855.0 ], [ 361634.999999999941792, 6526855.0 ], [ 361635.000000000232831, 6526824.999999999068677 ], [ 361605.000000000582077, 6526824.999999999068677 ], [ 361604.999999999708962, 6526855.0 ] ] ] ] } },
{ "type": "Feature", "properties": { "fid": 42.0, "DN": 1.0 }, "geometry": { "type": "MultiPolygon", "coordinates": [ [ [ [ 360735.000000000582077, 6526285.0 ], [ 360765.000000000116415, 6526285.0 ], [ 360764.999999999767169, 6526255.0 ], [ 360735.000000000291038, 6526255.0 ], [ 360735.000000000582077, 6526285.0 ] ] ] ] } },
{ "type": "Feature", "properties": { "fid": 59.0, "DN": 1.0 }, "geometry": { "type": "MultiPolygon", "coordinates": [ [ [ [ 361425.000000000407454, 6534085.0 ], [ 361485.000000000232831, 6534085.0 ], [ 361485.000000000582077, 6534025.0 ], [ 361454.999999999883585, 6534025.0 ], [ 361454.999999999592546, 6533995.0 ], [ 361424.999999999883585, 6533995.0 ], [ 361424.999999999476131, 6533965.0 ], [ 361395.000000000291038, 6533964.999999999068677 ], [ 361394.999999999767169, 6533935.0 ], [ 361365.0, 6533935.0 ], [ 361364.999999999883585, 6533875.0 ], [ 361334.999999999883585, 6533875.0 ], [ 361304.999999999650754, 6533875.0 ], [ 361305.000000000349246, 6533845.0 ], [ 361275.000000000232831, 6533845.0 ], [ 361274.999999999650754, 6533785.0 ], [ 361244.999999999767169, 6533785.0 ], [ 361244.999999999534339, 6533755.0 ], [ 361214.999999999417923, 6533755.0 ], [ 361214.999999999534339, 6533725.0 ], [ 361185.000000000465661, 6533725.0 ], [ 361184.999999999592546, 6533695.0 ], [ 361155.0, 6533695.0 ], [ 361155.000000000582077, 6533665.0 ], [ 361125.000000000349246, 6533665.0 ], [ 361124.999999999767169, 6533635.0 ], [ 361095.000000000116415, 6533635.0 ], [ 361095.000000000349246, 6533575.000000000931323 ], [ 361065.000000000582077, 6533575.0 ], [ 361065.000000000116415, 6533545.0 ], [ 361035.000000000407454, 6533545.0 ], [ 361034.999999999708962, 6533515.000000000931323 ], [ 361005.0, 6533515.0 ], [ 361004.999999999534339, 6533455.0 ], [ 360975.0, 6533455.0 ], [ 360974.999999999650754, 6533394.999999999068677 ], [ 360944.999999999708962, 6533395.000000000931323 ], [ 360944.999999999417923, 6533305.000000001862645 ], [ 360914.999999999883585, 6533305.000000001862645 ], [ 360914.999999999534339, 6533215.0 ], [ 360944.999999999941792, 6533215.0 ], [ 360944.999999999767169, 6533095.0 ], [ 360974.999999999650754, 6533095.0 ], [ 360974.999999999650754, 6533065.0 ], [ 361065.0, 6533065.0 ], [ 361065.0, 6533125.0 ], [ 361034.999999999592546, 6533125.0 ], [ 361035.000000000116415, 6533155.0 ], [ 361065.000000000349246, 6533155.0 ], [ 361095.000000000582077, 6533154.999999999068677 ], [ 361094.999999999534339, 6533185.0 ], [ 361124.999999999534339, 6533185.0 ], [ 361155.000000000582077, 6533185.000000000931323 ], [ 361155.000000000232831, 6533245.0 ], [ 361185.000000000232831, 6533245.0 ], [ 361184.999999999708962, 6533275.000000001862645 ], [ 361274.999999999883585, 6533275.000000001862645 ], [ 361275.000000000465661, 6533245.0 ], [ 361244.999999999708962, 6533245.000000001862645 ], [ 361244.999999999417923, 6533155.0 ], [ 361275.000000000407454, 6533155.0 ], [ 361275.000000000174623, 6533095.0 ], [ 361244.999999999534339, 6533095.0 ], [ 361245.000000000407454, 6533065.0 ], [ 361215.000000000465661, 6533065.0 ], [ 361214.999999999650754, 6533095.0 ], [ 361185.000000000465661, 6533095.0 ], [ 361185.000000000058208, 6533125.0 ], [ 361155.000000000465661, 6533125.0 ], [ 361155.000000000291038, 6533035.0 ], [ 361185.000000000116415, 6533035.0 ], [ 361185.000000000349246, 6532945.0 ], [ 361215.000000000291038, 6532945.0 ], [ 361214.999999999883585, 6532885.0 ], [ 361185.000000000465661, 6532885.000000000931323 ], [ 361185.000000000465661, 6532825.0 ], [ 361155.000000000349246, 6532825.0 ], [ 361155.000000000291038, 6532705.0 ], [ 361124.999999999941792, 6532705.000000001862645 ], [ 361125.000000000232831, 6532645.0 ], [ 361095.000000000349246, 6532645.0 ], [ 361094.999999999883585, 6532585.0 ], [ 361065.000000000232831, 6532585.0 ], [ 361065.000000000349246, 6532405.0 ], [ 361035.000000000582077, 6532405.000000000931323 ], [ 361035.000000000582077, 6532375.0 ], [ 361004.999999999883585, 6532375.000000000931323 ], [ 361004.999999999883585, 6532345.0 ], [ 360975.000000000582077, 6532345.0 ], [ 360944.999999999708962, 6532345.0 ], [ 360944.999999999417923, 6532255.0 ], [ 361005.000000000407454, 6532255.0 ], [ 361005.000000000174623, 6532225.0 ], [ 360975.000000000407454, 6532225.0 ], [ 360975.000000000116415, 6532195.0 ], [ 360944.999999999941792, 6532195.0 ], [ 360945.000000000582077, 6532165.0 ], [ 360914.999999999883585, 6532165.0 ], [ 360915.000000000582077, 6532075.0 ], [ 360885.000000000349246, 6532075.0 ], [ 360885.000000000465661, 6532045.0 ], [ 360855.000000000523869, 6532045.000000001862645 ], [ 360854.999999999592546, 6531955.000000000931323 ], [ 360825.000000000174623, 6531955.0 ], [ 360825.0, 6531835.0 ], [ 360794.999999999534339, 6531835.0 ], [ 360795.0, 6531715.000000000931323 ], [ 360825.000000000058208, 6531715.0 ], [ 360824.999999999650754, 6531625.0 ], [ 360855.0, 6531625.0 ], [ 360854.999999999767169, 6531445.0 ], [ 360824.999999999476131, 6531445.0 ], [ 360824.999999999767169, 6531385.000000000931323 ], [ 360795.000000000465661, 6531385.0 ], [ 360795.000000000523869, 6531295.0 ], [ 360765.000000000116415, 6531295.0 ], [ 360764.999999999650754, 6531265.0 ], [ 360734.999999999941792, 6531265.0 ], [ 360734.999999999650754, 6531205.000000000931323 ], [ 360704.999999999767169, 6531205.000000000931323 ], [ 360705.000000000232831, 6531115.0 ], [ 360674.999999999883585, 6531115.0 ], [ 360674.999999999883585, 6530995.0 ], [ 360645.000000000523869, 6530994.999999999068677 ], [ 360644.999999999883585, 6530905.0 ], [ 360615.000000000582077, 6530905.000000001862645 ], [ 360615.000000000232831, 6530725.0 ], [ 360585.000000000523869, 6530725.0 ], [ 360584.999999999941792, 6530425.0 ], [ 360615.000000000232831, 6530425.000000000931323 ], [ 360615.000000000116415, 6530364.999999999068677 ], [ 360645.000000000349246, 6530365.0 ], [ 360644.999999999534339, 6530245.0 ], [ 360675.000000000116415, 6530245.0 ], [ 360674.999999999708962, 6530185.0 ], [ 360705.000000000232831, 6530185.0 ], [ 360705.000000000232831, 6530125.0 ], [ 360735.000000000523869, 6530125.0 ], [ 360735.000000000582077, 6530065.0 ], [ 360765.000000000465661, 6530065.000000000931323 ], [ 360764.999999999708962, 6530035.0 ], [ 360794.999999999941792, 6530035.0 ], [ 360794.999999999650754, 6529975.0 ], [ 360825.000000000582077, 6529975.0 ], [ 360825.000000000116415, 6529945.0 ], [ 360854.999999999883585, 6529945.000000000931323 ], [ 360855.000000000232831, 6529915.0 ], [ 360885.000000000058208, 6529915.0 ], [ 360885.000000000116415, 6529885.0 ], [ 360914.999999999767169, 6529885.0 ], [ 360914.999999999767169, 6529855.000000000931323 ], [ 360945.000000000349246, 6529855.0 ], [ 360945.000000000232831, 6529825.000000000931323 ], [ 360975.000000000349246, 6529825.0 ], [ 360975.000000000407454, 6529795.0 ], [ 361005.000000000058208, 6529795.0 ], [ 361005.000000000232831, 6529765.0 ], [ 361035.000000000407454, 6529764.999999999068677 ], [ 361034.999999999767169, 6529734.999999998137355 ], [ 361065.000000000291038, 6529735.0 ], [ 361065.0, 6529705.0 ], [ 361094.999999999592546, 6529705.000000001862645 ], [ 361094.999999999883585, 6529675.000000001862645 ], [ 361155.000000000349246, 6529675.0 ], [ 361155.000000000291038, 6529644.999999999068677 ], [ 361184.999999999650754, 6529645.0 ], [ 361185.000000000349246, 6529615.0 ], [ 361214.999999999534339, 6529615.0 ], [ 361214.999999999825377, 6529585.0 ], [ 361245.0, 6529585.000000000931323 ], [ 361245.0, 6529555.0 ], [ 361274.999999999534339, 6529555.0 ], [ 361275.000000000582077, 6529525.0 ], [ 361304.999999999650754, 6529525.0 ], [ 361304.999999999417923, 6529495.000000000931323 ], [ 361335.000000000116415, 6529495.0 ], [ 361334.999999999941792, 6529465.0 ], [ 361364.999999999767169, 6529465.000000000931323 ], [ 361364.999999999767169, 6529405.0 ], [ 361395.000000000116415, 6529405.000000000931323 ], [ 361394.999999999883585, 6529345.0 ], [ 361424.999999999417923, 6529345.0 ], [ 361424.999999999767169, 6529285.0 ], [ 361454.999999999534339, 6529285.0 ], [ 361454.999999999417923, 6529255.0 ], [ 361485.000000000291038, 6529255.000000000931323 ], [ 361485.0, 6529224.999999999068677 ], [ 361515.000000000582077, 6529224.999999999068677 ], [ 361515.0, 6529195.0 ], [ 361545.000000000116415, 6529195.000000001862645 ], [ 361544.999999999650754, 6529165.0 ], [ 361605.000000000174623, 6529165.0 ], [ 361604.999999999941792, 6529135.0 ], [ 361665.000000000465661, 6529135.0 ], [ 361665.000000000465661, 6529105.0 ], [ 361694.999999999767169, 6529105.000000001862645 ], [ 361695.000000000116415, 6529075.0 ], [ 361724.999999999359716, 6529075.0 ], [ 361725.000000000116415, 6529045.0 ], [ 361784.999999999417923, 6529045.0 ], [ 361784.999999999417923, 6529015.000000001862645 ], [ 361815.000000000465661, 6529015.0 ], [ 361814.999999999767169, 6528985.000000000931323 ], [ 361845.000000000349246, 6528985.0 ], [ 361845.000000000349246, 6528955.0 ], [ 361875.000000000232831, 6528955.0 ], [ 361874.999999999883585, 6528925.0 ], [ 361905.000000000291038, 6528925.0 ], [ 361904.999999999534339, 6528895.0 ], [ 361935.000000000349246, 6528895.0 ], [ 361935.000000000582077, 6528835.000000000931323 ], [ 361965.000000000465661, 6528835.0 ], [ 361965.000000000465661, 6528805.0 ], [ 361995.000000000465661, 6528805.000000000931323 ], [ 361994.999999999650754, 6528745.0 ], [ 362054.999999999534339, 6528745.000000000931323 ], [ 362055.000000000232831, 6528715.0 ], [ 362084.999999999767169, 6528715.0 ], [ 362084.999999999417923, 6528625.000000000931323 ], [ 362115.000000000058208, 6528624.999999998137355 ], [ 362114.999999999592546, 6528535.0 ], [ 362144.999999999883585, 6528535.0 ], [ 362144.999999999417923, 6528475.0 ], [ 362174.999999999359716, 6528475.0 ], [ 362174.999999999708962, 6528445.0 ], [ 362205.000000000058208, 6528445.000000001862645 ], [ 362205.000000000582077, 6528355.0 ], [ 362235.000000000582077, 6528355.0 ], [ 362235.0, 6528235.0 ], [ 362294.999999999941792, 6528235.0 ], [ 362295.0, 6528205.0 ], [ 362324.999999999534339, 6528205.0 ], [ 362325.000000000116415, 6528145.0 ], [ 362354.999999999941792, 6528145.0 ], [ 362355.0, 6528085.0 ], [ 362384.999999999767169, 6528085.0 ], [ 362384.999999999417923, 6528055.0 ], [ 362474.999999999767169, 6528055.000000000931323 ], [ 362474.999999999534339, 6528025.0 ], [ 362714.999999999650754, 6528025.000000000931323 ], [ 362715.000000000116415, 6528055.000000000931323 ], [ 362774.999999999534339, 6528055.000000000931323 ], [ 362805.000000000116415, 6528055.0 ], [ 362804.999999999417923, 6528085.0 ], [ 362895.0, 6528085.000000000931323 ], [ 362924.999999999592546, 6528085.0 ], [ 362925.000000000349246, 6528115.0 ], [ 362954.999999999883585, 6528115.0 ], [ 362954.999999999767169, 6528145.0 ], [ 363224.999999999883585, 6528145.0 ], [ 363255.000000000232831, 6528145.0 ], [ 363255.000000000232831, 6528175.0 ], [ 363375.000000000174623, 6528175.000000000931323 ], [ 363374.999999999941792, 6528145.0 ], [ 363464.999999999476131, 6528145.0 ], [ 363465.000000000232831, 6528115.0 ], [ 363645.000000000116415, 6528115.0 ], [ 363644.999999999417923, 6528145.0 ], [ 363674.999999999417923, 6528145.0 ], [ 363675.000000000582077, 6528175.0 ], [ 363764.999999999417923, 6528175.0 ], [ 363765.000000000465661, 6528115.000000000931323 ], [ 363735.000000000582077, 6528115.000000000931323 ], [ 363735.0, 6528085.0 ], [ 363705.000000000291038, 6528085.0 ], [ 363645.000000000349246, 6528085.0 ], [ 363645.000000000349246, 6528055.0 ], [ 363614.999999999941792, 6528055.0 ], [ 363615.000000000349246, 6528025.0 ], [ 363584.999999999883585, 6528025.0 ], [ 363554.999999999767169, 6528025.0 ], [ 363555.0, 6527995.0 ], [ 363524.999999999650754, 6527995.0 ], [ 363465.000000000232831, 6527995.0 ], [ 363465.000000000349246, 6527965.0 ], [ 363435.000000000465661, 6527965.0 ], [ 363435.000000000465661, 6527935.0 ], [ 363405.0, 6527935.0 ], [ 363404.999999999767169, 6527905.0 ], [ 363375.0, 6527905.0 ], [ 363375.000000000523869, 6527815.0 ], [ 363405.000000000232831, 6527815.0 ], [ 363404.999999999941792, 6527785.0 ], [ 363375.000000000058208, 6527785.0 ], [ 363375.000000000640284, 6527755.0 ], [ 363344.999999999476131, 6527755.0 ], [ 363344.999999999767169, 6527815.0 ], [ 363314.999999999417923, 6527815.0 ], [ 363314.999999999883585, 6527845.0 ], [ 363285.000000000116415, 6527845.0 ], [ 363285.000000000291038, 6527875.0 ], [ 363255.000000000058208, 6527875.0 ], [ 363254.999999999883585, 6527905.0 ], [ 363284.999999999941792, 6527905.000000001862645 ], [ 363284.999999999708962, 6527965.0 ], [ 363254.999999999883585, 6527965.0 ], [ 363255.000000000232831, 6528024.999999999068677 ], [ 363014.999999999825377, 6528025.000000000931323 ], [ 363014.999999999767169, 6527995.0 ], [ 362985.0, 6527995.0 ], [ 362865.000000000349246, 6527995.0 ], [ 362865.000000000232831, 6527965.0 ], [ 362834.999999999534339, 6527965.0 ], [ 362744.999999999592546, 6527965.0 ], [ 362744.999999999767169, 6527935.0 ], [ 362714.999999999534339, 6527935.0 ], [ 362595.000000000116415, 6527935.0 ], [ 362595.000000000232831, 6527905.0 ], [ 362565.000000000058208, 6527905.0 ], [ 362475.000000000291038, 6527905.0 ], [ 362475.0, 6527875.0 ], [ 362444.999999999825377, 6527875.0 ], [ 362445.000000000349246, 6527815.0 ], [ 362414.999999999417923, 6527815.0 ], [ 362415.000000000116415, 6527755.0 ], [ 362385.000000000349246, 6527755.0 ], [ 362385.000000000116415, 6527785.0 ], [ 362354.999999999650754, 6527785.0 ], [ 362354.999999999650754, 6527815.0 ], [ 362264.999999999534339, 6527815.0 ], [ 362264.999999999650754, 6527785.0 ], [ 362235.000000000232831, 6527785.0 ], [ 362234.999999999767169, 6527725.0 ], [ 362204.999999999767169, 6527725.0 ], [ 362204.999999999941792, 6527665.0 ], [ 362175.000000000116415, 6527665.000000000931323 ], [ 362174.999999999708962, 6527605.000000000931323 ], [ 362144.999999999650754, 6527605.0 ], [ 362145.000000000232831, 6527725.0 ], [ 362024.999999999592546, 6527725.0 ], [ 362024.999999999476131, 6527695.0 ], [ 361995.000000000349246, 6527695.0 ], [ 361965.0, 6527695.000000000931323 ], [ 361964.999999999534339, 6527665.000000000931323 ], [ 361934.999999999650754, 6527665.000000000931323 ], [ 361935.000000000174623, 6527605.000000000931323 ], [ 361904.999999999476131, 6527605.0 ], [ 361905.000000000465661, 6527575.0 ], [ 361935.0, 6527575.0 ], [ 361934.999999999767169, 6527545.0 ], [ 361905.000000000349246, 6527545.0 ], [ 361874.999999999592546, 6527545.0 ], [ 361874.999999999883585, 6527395.0 ], [ 361845.000000000174623, 6527395.0 ], [ 361784.999999999767169, 6527395.0 ], [ 361784.999999999650754, 6527335.0 ], [ 361755.000000000232831, 6527335.0 ], [ 361755.000000000523869, 6527245.0 ], [ 361784.999999999767169, 6527245.0 ], [ 361785.000000000465661, 6527215.0 ], [ 361755.000000000291038, 6527215.0 ], [ 361724.999999999534339, 6527215.0 ], [ 361725.000000000232831, 6527065.000000000931323 ], [ 361755.000000000407454, 6527065.0 ], [ 361754.999999999650754, 6527035.0 ], [ 361724.999999999417923, 6527035.000000000931323 ], [ 361724.999999999534339, 6527005.0 ], [ 361694.999999999534339, 6527005.0 ], [ 361695.000000000116415, 6526915.0 ], [ 361664.999999999476131, 6526915.0 ], [ 361604.999999999941792, 6526915.000000000931323 ], [ 361604.999999999650754, 6526945.0 ], [ 361635.000000000582077, 6526945.0 ], [ 361634.999999999534339, 6526975.0 ], [ 361605.000000000232831, 6526975.0 ], [ 361605.000000000116415, 6527035.0 ], [ 361544.999999999767169, 6527035.000000000931323 ], [ 361545.000000000465661, 6527005.0 ], [ 361514.999999999417923, 6527005.0 ], [ 361515.000000000232831, 6526945.0 ], [ 361484.999999999708962, 6526945.0 ], [ 361484.999999999708962, 6526825.0 ], [ 361454.999999999767169, 6526825.0 ], [ 361454.999999999650754, 6526795.0 ], [ 361485.000000000582077, 6526794.999999998137355 ], [ 361485.000000000058208, 6526765.0 ], [ 361455.000000000465661, 6526765.0 ], [ 361424.999999999883585, 6526765.0 ], [ 361424.999999999767169, 6526675.0 ], [ 361395.000000000407454, 6526675.000000001862645 ], [ 361395.000000000349246, 6526645.0 ], [ 361364.999999999534339, 6526645.0 ], [ 361365.000000000407454, 6526555.0 ], [ 361334.999999999650754, 6526555.0 ], [ 361334.999999999883585, 6526525.0 ], [ 361304.999999999650754, 6526525.0 ], [ 361305.000000000582077, 6526585.0 ], [ 361214.999999999592546, 6526585.0 ], [ 361215.0, 6526645.0 ], [ 361095.000000000116415, 6526645.0 ], [ 361094.999999999825377, 6526615.0 ], [ 361065.000000000523869, 6526615.0 ], [ 361065.000000000232831, 6526435.0 ], [ 361035.000000000349246, 6526435.000000000931323 ], [ 361034.999999999825377, 6526405.0 ], [ 361064.999999999883585, 6526405.0 ], [ 361064.999999999417923, 6526375.0 ], [ 361035.000000000349246, 6526375.0 ], [ 361035.000000000116415, 6526285.0 ], [ 361004.999999999941792, 6526285.000000000931323 ], [ 361004.999999999825377, 6526255.0 ], [ 360944.999999999534339, 6526255.0 ], [ 360944.999999999534339, 6526285.0 ], [ 360914.999999999534339, 6526285.0 ], [ 360915.000000000349246, 6526525.000000000931323 ], [ 360884.999999999883585, 6526525.0 ], [ 360885.000000000116415, 6526585.000000000931323 ], [ 360825.000000000232831, 6526585.0 ], [ 360825.000000000407454, 6526555.000000000931323 ], [ 360795.000000000232831, 6526555.0 ], [ 360764.999999999767169, 6526555.000000000931323 ], [ 360765.000000000465661, 6526525.000000000931323 ], [ 360735.000000000407454, 6526525.0 ], [ 360705.0, 6526525.0 ], [ 360704.999999999650754, 6526495.0 ], [ 360674.999999999534339, 6526495.0 ], [ 360674.999999999767169, 6526465.0 ], [ 360644.999999999767169, 6526465.0 ], [ 360645.000000000465661, 6526375.000000000931323 ], [ 360674.999999999825377, 6526375.0 ], [ 360675.000000000349246, 6526345.0 ], [ 360705.000000000232831, 6526345.0 ], [ 360705.0, 6526255.0 ], [ 360675.000000000116415, 6526255.000000000931323 ], [ 360614.999999999650754, 6526255.0 ], [ 360614.999999999825377, 6526225.0 ], [ 360585.000000000174623, 6526225.0 ], [ 360585.000000000232831, 6526255.0 ], [ 360555.000000000349246, 6526255.0 ], [ 360555.000000000116415, 6526315.0 ], [ 360495.0, 6526315.0 ], [ 360495.000000000232831, 6526255.000000000931323 ], [ 360465.000000000116415, 6526255.000000000931323 ], [ 360464.999999999650754, 6526195.0 ], [ 360494.999999999592546, 6526195.0 ], [ 360494.999999999767169, 6526135.0 ], [ 360464.999999999825377, 6526135.0 ], [ 360465.000000000232831, 6526105.0 ], [ 360315.000000000116415, 6526105.000000001862645 ], [ 360315.000000000582077, 6526135.0 ], [ 360254.999999999592546, 6526135.0 ], [ 360255.000000000465661, 6526105.0 ], [ 360224.999999999592546, 6526105.0 ], [ 360135.000000000465661, 6526105.000000001862645 ], [ 360135.000000000582077, 6526045.0 ], [ 360194.999999999534339, 6526045.0 ], [ 360194.999999999883585, 6526015.0 ], [ 360225.000000000291038, 6526015.0 ], [ 360225.000000000116415, 6525985.0 ], [ 360285.000000000058208, 6525985.0 ], [ 360284.999999999650754, 6525955.000000000931323 ], [ 360315.000000000116415, 6525955.0 ], [ 360315.000000000582077, 6525895.0 ], [ 360284.999999999767169, 6525895.0 ], [ 360194.999999999767169, 6525895.0 ], [ 360195.000000000349246, 6525865.0 ], [ 360164.999999999708962, 6525865.0 ], [ 360134.999999999592546, 6525865.0 ], [ 360134.999999999592546, 6525835.000000000931323 ], [ 360105.000000000582077, 6525835.0 ], [ 360074.999999999650754, 6525835.0 ], [ 360074.999999999883585, 6525805.000000000931323 ], [ 360045.0, 6525805.0 ], [ 360045.000000000349246, 6525745.000000000931323 ], [ 360015.000000000116415, 6525745.0 ], [ 360015.000000000291038, 6525715.0 ], [ 359984.999999999417923, 6525715.0 ], [ 359985.000000000232831, 6525685.0 ], [ 359954.999999999883585, 6525685.0 ], [ 359955.0, 6525655.0 ], [ 359745.000000000058208, 6525655.000000000931323 ], [ 359745.000000000465661, 6525685.0 ], [ 359684.999999999883585, 6525685.0 ], [ 359685.000000000582077, 6525655.0 ], [ 359654.999999999883585, 6525655.0 ], [ 359654.999999999883585, 6525625.0 ], [ 359625.000000000407454, 6525624.999999999068677 ], [ 359624.999999999825377, 6525595.0 ], [ 359595.000000000232831, 6525595.000000001862645 ], [ 359595.000000000116415, 6525565.0 ], [ 359565.000000000349246, 6525564.999999999068677 ], [ 359474.999999999767169, 6525564.999999999068677 ], [ 359474.999999999534339, 6525535.0 ], [ 359445.0, 6525535.0 ], [ 359444.999999999767169, 6525505.0 ], [ 359414.999999999708962, 6525505.0 ], [ 359415.000000000349246, 6525475.0 ], [ 359384.999999999767169, 6525475.000000001862645 ], [ 359385.000000000116415, 6525445.0 ], [ 359354.999999999941792, 6525445.0 ], [ 359354.999999999767169, 6525415.0 ], [ 359325.0, 6525415.0 ], [ 359325.000000000582077, 6525385.0 ], [ 359294.999999999767169, 6525385.0 ], [ 359294.999999999650754, 6525355.0 ], [ 359265.000000000116415, 6525355.0 ], [ 359235.000000000465661, 6525355.0 ], [ 359234.999999999767169, 6525325.0 ], [ 359205.0, 6525325.0 ], [ 359115.0, 6525325.0 ], [ 359115.000000000465661, 6525295.0 ], [ 359085.000000000232831, 6525295.0 ], [ 359054.999999999883585, 6525295.0 ], [ 359054.999999999767169, 6525265.0 ], [ 359025.000000000349246, 6525265.0 ], [ 359025.000000000465661, 6525205.0 ], [ 358994.999999999883585, 6525205.0 ], [ 358995.000000000349246, 6525145.0 ], [ 358964.999999999534339, 6525145.0 ], [ 358965.000000000465661, 6525115.0 ], [ 358934.999999999883585, 6525115.0 ], [ 358934.999999999941792, 6525085.0 ], [ 358904.999999999534339, 6525085.0 ], [ 358875.000000000116415, 6525085.0 ], [ 358874.999999999534339, 6525055.0 ], [ 358845.0, 6525055.0 ], [ 358784.999999999534339, 6525055.0 ], [ 358785.000000000116415, 6525025.0 ], [ 358755.000000000232831, 6525024.999999999068677 ], [ 358754.999999999534339, 6524994.999999999068677 ], [ 358725.000000000465661, 6524995.0 ], [ 358695.000000000232831, 6524995.0 ], [ 358695.0, 6524965.0 ], [ 358665.000000000465661, 6524965.0 ], [ 358664.999999999708962, 6524935.0 ], [ 358634.999999999534339, 6524935.0 ], [ 358634.999999999417923, 6524905.0 ], [ 358604.999999999767169, 6524905.0 ], [ 358575.0, 6524905.000000001862645 ], [ 358574.999999999650754, 6524875.0 ], [ 358545.000000000232831, 6524875.0 ], [ 358545.000000000058208, 6524845.0 ], [ 358514.999999999767169, 6524845.0 ], [ 358514.999999999650754, 6524875.0 ], [ 358424.999999999767169, 6524875.0 ], [ 358425.0, 6524815.000000000931323 ], [ 358394.999999999767169, 6524815.0 ], [ 358394.999999999534339, 6524785.0 ], [ 358365.000000000465661, 6524785.0 ], [ 358365.000000000465661, 6524725.0 ], [ 358395.000000000232831, 6524725.000000000931323 ], [ 358394.999999999941792, 6524695.0 ], [ 358364.999999999767169, 6524695.000000000931323 ], [ 358365.000000000465661, 6524665.0 ], [ 358334.999999999767169, 6524665.0 ], [ 358335.000000000349246, 6524605.000000000931323 ], [ 358304.999999999417923, 6524605.0 ], [ 358305.000000000349246, 6524485.0 ], [ 358334.999999999650754, 6524485.000000000931323 ], [ 358335.000000000582077, 6524455.0 ], [ 358365.000000000291038, 6524455.0 ], [ 358365.000000000465661, 6524335.000000001862645 ], [ 358394.999999999650754, 6524335.0 ], [ 358395.000000000116415, 6524275.0 ], [ 358425.000000000523869, 6524275.0 ], [ 358425.000000000349246, 6524245.0 ], [ 358395.000000000058208, 6524245.0 ], [ 358364.999999999883585, 6524245.0 ], [ 358364.999999999883585, 6524275.0 ], [ 358305.000000000232831, 6524275.0 ], [ 358305.0, 6524305.0 ], [ 358244.999999999534339, 6524305.0 ], [ 358244.999999999417923, 6524275.0 ], [ 358214.999999999708962, 6524275.0 ], [ 358215.000000000116415, 6524245.0 ], [ 358185.000000000582077, 6524245.0 ], [ 358185.000000000465661, 6524275.0 ], [ 358124.999999999941792, 6524275.0 ], [ 358125.000000000349246, 6524245.000000001862645 ], [ 358094.999999999883585, 6524245.0 ], [ 358095.000000000291038, 6524215.0 ], [ 358064.999999999767169, 6524215.0 ], [ 358065.0, 6524155.000000000931323 ], [ 358034.999999999650754, 6524155.0 ], [ 358035.000000000465661, 6524125.0 ], [ 358004.999999999767169, 6524125.000000000931323 ], [ 358005.000000000407454, 6524095.0 ], [ 357975.000000000407454, 6524095.000000000931323 ], [ 357975.000000000465661, 6524035.0 ], [ 357944.999999999825377, 6524035.0 ], [ 357945.000000000349246, 6524005.0 ], [ 357914.999999999883585, 6524005.0 ], [ 357914.999999999883585, 6523975.000000000931323 ], [ 357884.999999999650754, 6523975.0 ], [ 357854.999999999767169, 6523975.0 ], [ 357855.000000000582077, 6523885.0 ], [ 357824.999999999650754, 6523885.0 ], [ 357824.999999999534339, 6523855.0 ], [ 357794.999999999534339, 6523855.0 ], [ 357794.999999999767169, 6523825.0 ], [ 357765.000000000465661, 6523825.0 ], [ 357764.999999999417923, 6523705.0 ], [ 357794.999999999825377, 6523705.000000001862645 ], [ 357795.000000000465661, 6523645.0 ], [ 357765.000000000349246, 6523645.0 ], [ 357735.000000000116415, 6523645.0 ], [ 357735.000000000116415, 6523615.0 ], [ 357704.999999999767169, 6523615.0 ], [ 357704.999999999825377, 6523585.0 ], [ 357675.000000000465661, 6523585.0 ], [ 357675.000000000465661, 6523555.0 ], [ 357644.999999999417923, 6523555.0 ], [ 357645.000000000465661, 6523495.0 ], [ 357674.999999999708962, 6523495.0 ], [ 357675.000000000349246, 6523465.0 ], [ 357704.999999999650754, 6523465.0 ], [ 357705.0, 6523345.0 ], [ 357674.999999999883585, 6523345.000000000931323 ], [ 357675.000000000407454, 6523405.0 ], [ 357644.999999999650754, 6523405.0 ], [ 357645.0, 6523435.000000000931323 ], [ 357614.999999999417923, 6523435.0 ], [ 357614.999999999417923, 6523465.000000000931323 ], [ 357585.000000000465661, 6523465.0 ], [ 357584.999999999883585, 6523525.0 ], [ 357555.000000000582077, 6523525.0 ], [ 357554.999999999767169, 6523555.0 ], [ 357524.999999999883585, 6523555.0 ], [ 357524.999999999708962, 6523675.000000001862645 ], [ 357494.999999999650754, 6523675.0 ], [ 357495.000000000116415, 6523765.0 ], [ 357525.000000000232831, 6523764.999999999068677 ], [ 357524.999999999883585, 6523794.999999999068677 ], [ 357494.999999999883585, 6523795.0 ], [ 357495.000000000232831, 6523915.0 ], [ 357524.999999999650754, 6523915.0 ], [ 357524.999999999650754, 6524185.0 ], [ 357555.000000000058208, 6524185.0 ], [ 357555.0, 6524215.0 ], [ 357585.000000000116415, 6524215.0 ], [ 357585.000000000116415, 6524305.0 ], [ 357615.000000000232831, 6524305.0 ], [ 357644.999999999534339, 6524305.0 ], [ 357645.000000000582077, 6524335.0 ], [ 357675.0, 6524335.0 ], [ 357675.000000000232831, 6524425.0 ], [ 357704.999999999883585, 6524425.0 ], [ 357705.000000000116415, 6524485.0 ], [ 357735.000000000465661, 6524485.0 ], [ 357735.0, 6524515.0 ], [ 357705.000000000582077, 6524515.000000000931323 ], [ 357705.000000000349246, 6524545.0 ], [ 357735.000000000116415, 6524545.0 ], [ 357734.999999999476131, 6524575.000000000931323 ], [ 357765.000000000232831, 6524575.000000000931323 ], [ 357765.000000000116415, 6524695.000000000931323 ], [ 357795.000000000349246, 6524695.0 ], [ 357795.000000000232831, 6524815.000000000931323 ], [ 357824.999999999883585, 6524815.0 ], [ 357825.000000000465661, 6524875.000000001862645 ], [ 357764.999999999534339, 6524875.000000001862645 ], [ 357765.000000000582077, 6524965.0 ], [ 357675.000000000174623, 6524965.0 ], [ 357675.000000000407454, 6524994.999999999068677 ], [ 357644.999999999883585, 6524995.0 ], [ 357644.999999999767169, 6525025.0 ], [ 357585.000000000116415, 6525024.999999999068677 ], [ 357584.999999999767169, 6525055.000000000931323 ], [ 357554.999999999650754, 6525055.0 ], [ 357555.000000000116415, 6525085.0 ], [ 357525.000000000058208, 6525085.000000000931323 ], [ 357524.999999999941792, 6525115.0 ], [ 357554.999999999650754, 6525115.0 ], [ 357555.000000000582077, 6525145.0 ], [ 357584.999999999883585, 6525145.0 ], [ 357585.000000000465661, 6525205.0 ], [ 357614.999999999476131, 6525205.0 ], [ 357615.000000000232831, 6525145.000000000931323 ], [ 357675.000000000232831, 6525145.0 ], [ 357674.999999999883585, 6525115.0 ], [ 357705.000000000582077, 6525115.0 ], [ 357704.999999999417923, 6525085.0 ], [ 357765.000000000582077, 6525085.0 ], [ 357764.999999999767169, 6525055.0 ], [ 357855.000000000465661, 6525055.000000000931323 ], [ 357855.000000000291038, 6525115.0 ], [ 357885.0, 6525115.0 ], [ 357884.999999999650754, 6525145.0 ], [ 357915.000000000349246, 6525145.0 ], [ 357915.000000000232831, 6525205.000000000931323 ], [ 357884.999999999650754, 6525205.0 ], [ 357884.999999999883585, 6525235.0 ], [ 357915.0, 6525235.0 ], [ 357914.999999999883585, 6525355.0 ], [ 357945.000000000407454, 6525355.000000000931323 ], [ 357945.000000000058208, 6525415.0 ], [ 357975.0, 6525415.0 ], [ 357975.000000000232831, 6525505.0 ], [ 358005.0, 6525505.0 ], [ 358005.0, 6525535.0 ], [ 358034.999999999883585, 6525535.0 ], [ 358035.000000000174623, 6525685.0 ], [ 358064.999999999650754, 6525685.0 ], [ 358065.000000000232831, 6525835.000000000931323 ], [ 358034.999999999534339, 6525835.0 ], [ 358034.999999999767169, 6525865.0 ], [ 358065.000000000058208, 6525865.0 ], [ 358065.000000000465661, 6525895.0 ], [ 358094.999999999941792, 6525895.0 ], [ 358095.000000000465661, 6525985.0 ], [ 358125.000000000232831, 6525985.0 ], [ 358125.000000000232831, 6526015.000000000931323 ], [ 358154.999999999592546, 6526015.0 ], [ 358155.0, 6526105.0 ], [ 358184.999999999767169, 6526105.0 ], [ 358185.000000000582077, 6526135.0 ], [ 358215.000000000349246, 6526135.0 ], [ 358244.999999999825377, 6526135.0 ], [ 358244.999999999534339, 6526165.0 ], [ 358275.000000000465661, 6526165.0 ], [ 358274.999999999650754, 6526225.000000000931323 ], [ 358244.999999999650754, 6526225.000000000931323 ], [ 358245.000000000058208, 6526255.000000000931323 ], [ 358305.000000000116415, 6526255.000000000931323 ], [ 358335.000000000582077, 6526255.0 ], [ 358335.000000000116415, 6526285.0 ], [ 358365.000000000058208, 6526285.0 ], [ 358365.000000000582077, 6526375.0 ], [ 358395.000000000232831, 6526375.0 ], [ 358395.000000000407454, 6526435.0 ], [ 358425.000000000232831, 6526435.0 ], [ 358424.999999999767169, 6526495.000000000931323 ], [ 358455.000000000407454, 6526495.0 ], [ 358454.999999999883585, 6526525.0 ], [ 358484.999999999708962, 6526525.0 ], [ 358484.999999999417923, 6526585.0 ], [ 358514.999999999417923, 6526585.0 ], [ 358514.999999999767169, 6526615.0 ], [ 358544.999999999417923, 6526615.0 ], [ 358545.000000000465661, 6526705.0 ], [ 358515.000000000465661, 6526705.0 ], [ 358514.999999999650754, 6526734.999999999068677 ], [ 358455.000000000465661, 6526734.999999999068677 ], [ 358454.999999999650754, 6526765.0 ], [ 358425.000000000640284, 6526765.0 ], [ 358424.999999999767169, 6526734.999999999068677 ], [ 358365.000000000465661, 6526735.0 ], [ 358364.999999999767169, 6526765.0 ], [ 358394.999999999825377, 6526765.0 ], [ 358395.000000000349246, 6526794.999999999068677 ], [ 358515.000000000174623, 6526795.0 ], [ 358514.999999999650754, 6526765.0 ], [ 358575.000000000349246, 6526765.0 ], [ 358574.999999999592546, 6526795.0 ], [ 358605.000000000058208, 6526795.0 ], [ 358605.000000000523869, 6526914.999999998137355 ], [ 358634.999999999883585, 6526915.0 ], [ 358634.999999999476131, 6527035.000000000931323 ], [ 358665.000000000174623, 6527035.0 ], [ 358665.000000000465661, 6527065.0 ], [ 358695.000000000232831, 6527065.0 ], [ 358694.999999999534339, 6527125.0 ], [ 358724.999999999417923, 6527125.0 ], [ 358725.000000000232831, 6527185.0 ], [ 358754.999999999417923, 6527185.0 ], [ 358755.000000000174623, 6527275.0 ], [ 358785.000000000349246, 6527275.0 ], [ 358785.0, 6527305.0 ], [ 358815.000000000232831, 6527305.0 ], [ 358815.000000000116415, 6527335.0 ], [ 358845.000000000465661, 6527335.0 ], [ 358844.999999999476131, 6527364.999999999068677 ], [ 358875.000000000349246, 6527364.999999999068677 ], [ 358904.999999999883585, 6527365.0 ], [ 358904.999999999767169, 6527394.999999999068677 ], [ 358934.999999999825377, 6527395.0 ], [ 358934.999999999534339, 6527455.0 ], [ 358875.000000000582077, 6527455.000000000931323 ], [ 358874.999999999650754, 6527485.0 ], [ 358845.000000000291038, 6527485.0 ], [ 358845.000000000232831, 6527605.0 ], [ 358875.0, 6527605.0 ], [ 358875.000000000465661, 6527755.0 ], [ 358904.999999999767169, 6527755.000000000931323 ], [ 358904.999999999650754, 6527785.0 ], [ 358995.000000000116415, 6527785.0 ], [ 358995.0, 6527755.0 ], [ 359024.999999999650754, 6527755.000000000931323 ], [ 359025.0, 6527725.0 ], [ 359055.0, 6527725.0 ], [ 359054.999999999534339, 6527695.000000000931323 ], [ 359324.999999999767169, 6527695.0 ], [ 359325.0, 6527725.0 ], [ 359354.999999999592546, 6527725.0 ], [ 359354.999999999592546, 6527755.0 ], [ 359385.000000000058208, 6527755.000000000931323 ], [ 359384.999999999825377, 6527815.000000001862645 ], [ 359414.999999999883585, 6527815.0 ], [ 359414.999999999708962, 6527845.0 ], [ 359444.999999999883585, 6527845.000000001862645 ], [ 359444.999999999534339, 6527905.0 ], [ 359475.000000000116415, 6527905.0 ], [ 359474.999999999708962, 6528085.000000000931323 ], [ 359445.000000000349246, 6528085.0 ], [ 359445.000000000349246, 6528115.0 ], [ 359354.999999999534339, 6528115.0 ], [ 359355.000000000407454, 6528175.0 ], [ 359415.000000000232831, 6528175.000000000931323 ], [ 359414.999999999767169, 6528145.0 ], [ 359595.000000000349246, 6528145.0 ], [ 359624.999999999708962, 6528145.0 ], [ 359624.999999999650754, 6528205.0 ], [ 359595.000000000582077, 6528205.0 ], [ 359594.999999999592546, 6528355.0 ], [ 359505.000000000465661, 6528355.0 ], [ 359504.999999999767169, 6528385.0 ], [ 359474.999999999650754, 6528385.0 ], [ 359475.0, 6528445.0 ], [ 359444.999999999883585, 6528445.0 ], [ 359444.999999999417923, 6528475.0 ], [ 359384.999999999708962, 6528475.000000001862645 ], [ 359384.999999999534339, 6528535.0 ], [ 359445.000000000465661, 6528534.999999999068677 ], [ 359445.0, 6528505.0 ], [ 359475.000000000232831, 6528505.0 ], [ 359505.000000000582077, 6528505.0 ], [ 359505.000000000582077, 6528565.0 ], [ 359535.000000000349246, 6528564.999999999068677 ], [ 359565.000000000291038, 6528565.0 ], [ 359565.000000000116415, 6528594.999999999068677 ], [ 359594.999999999534339, 6528595.0 ], [ 359594.999999999708962, 6528625.0 ], [ 359624.999999999767169, 6528625.0 ], [ 359625.000000000465661, 6528655.0 ], [ 359594.999999999650754, 6528655.0 ], [ 359595.0, 6528715.0 ], [ 359564.999999999417923, 6528715.000000000931323 ], [ 359565.000000000116415, 6528745.0 ], [ 359535.000000000523869, 6528745.0 ], [ 359534.999999999941792, 6528775.000000000931323 ], [ 359505.000000000232831, 6528775.0 ], [ 359504.999999999767169, 6528895.0 ], [ 359475.000000000291038, 6528895.0 ], [ 359475.000000000116415, 6528925.0 ], [ 359504.999999999417923, 6528925.0 ], [ 359505.000000000349246, 6528955.0 ], [ 359535.000000000349246, 6528955.0 ], [ 359534.999999999883585, 6529045.0 ], [ 359564.999999999534339, 6529045.0 ], [ 359565.000000000582077, 6529135.0 ], [ 359594.999999999534339, 6529135.0 ], [ 359594.999999999650754, 6529165.0 ], [ 359565.000000000349246, 6529165.0 ], [ 359565.000000000582077, 6529255.0 ], [ 359594.999999999767169, 6529255.000000000931323 ], [ 359595.000000000058208, 6529405.0 ], [ 359625.000000000582077, 6529405.000000001862645 ], [ 359624.999999999767169, 6529495.0 ], [ 359595.000000000291038, 6529495.0 ], [ 359594.999999999534339, 6529555.0 ], [ 359534.999999999417923, 6529555.0 ], [ 359535.000000000465661, 6529585.0 ], [ 359564.999999999708962, 6529585.000000000931323 ], [ 359595.000000000058208, 6529585.0 ], [ 359595.000000000465661, 6529645.0 ], [ 359624.999999999417923, 6529645.0 ], [ 359625.000000000116415, 6529705.0 ], [ 359655.000000000465661, 6529705.0 ], [ 359655.000000000232831, 6529885.0 ], [ 359595.000000000582077, 6529885.000000000931323 ], [ 359594.999999999417923, 6529915.0 ], [ 359624.999999999534339, 6529915.0 ], [ 359624.999999999534339, 6529945.0 ], [ 359654.999999999592546, 6529945.0 ], [ 359685.0, 6529945.0 ], [ 359684.999999999650754, 6529975.0 ], [ 359654.999999999650754, 6529975.0 ], [ 359655.000000000232831, 6530125.000000000931323 ], [ 359684.999999999767169, 6530125.0 ], [ 359684.999999999534339, 6530244.999999999068677 ], [ 359714.999999999883585, 6530245.0 ], [ 359714.999999999534339, 6530335.0 ], [ 359745.000000000349246, 6530335.0 ], [ 359744.999999999767169, 6530365.0 ], [ 359774.999999999767169, 6530365.0 ], [ 359775.000000000582077, 6530455.0 ], [ 359745.000000000232831, 6530455.0 ], [ 359745.000000000349246, 6530515.0 ], [ 359715.000000000291038, 6530515.0 ], [ 359715.0, 6530575.0 ], [ 359685.000000000349246, 6530575.0 ], [ 359684.999999999592546, 6530665.000000000931323 ], [ 359654.999999999708962, 6530665.000000000931323 ], [ 359655.0, 6530695.0 ], [ 359625.000000000116415, 6530695.0 ], [ 359625.0, 6530724.999999999068677 ], [ 359595.000000000232831, 6530725.0 ], [ 359594.999999999534339, 6530755.000000000931323 ], [ 359655.000000000232831, 6530755.0 ], [ 359655.000000000582077, 6530725.0 ], [ 359684.999999999767169, 6530725.000000000931323 ], [ 359684.999999999534339, 6530695.000000000931323 ], [ 359714.999999999883585, 6530695.000000000931323 ], [ 359715.000000000407454, 6530665.000000000931323 ], [ 359745.000000000582077, 6530665.0 ], [ 359745.000000000116415, 6530605.000000000931323 ], [ 359775.000000000349246, 6530605.0 ], [ 359774.999999999650754, 6530575.000000000931323 ], [ 359834.999999999883585, 6530575.0 ], [ 359834.999999999941792, 6530605.0 ], [ 359865.000000000349246, 6530605.0 ], [ 359865.0, 6530635.000000000931323 ], [ 359894.999999999417923, 6530635.0 ], [ 359894.999999999883585, 6530665.0 ], [ 359924.999999999650754, 6530665.0 ], [ 359924.999999999883585, 6530695.000000000931323 ], [ 359955.000000000116415, 6530695.000000000931323 ], [ 359954.999999999708962, 6530755.0 ], [ 359984.999999999767169, 6530755.0 ], [ 359984.999999999476131, 6530815.0 ], [ 360014.999999999767169, 6530815.0 ], [ 360014.999999999883585, 6530905.0 ], [ 360045.000000000349246, 6530905.0 ], [ 360045.000000000232831, 6530965.0 ], [ 360015.000000000582077, 6530965.0 ], [ 360015.000000000465661, 6531025.0 ], [ 360044.999999999650754, 6531025.000000001862645 ], [ 360045.000000000116415, 6531114.999999998137355 ], [ 360074.999999999941792, 6531115.0 ], [ 360074.999999999417923, 6531205.0 ], [ 360044.999999999417923, 6531205.0 ], [ 360044.999999999534339, 6531235.0 ], [ 360074.999999999708962, 6531235.0 ], [ 360074.999999999534339, 6531355.0 ], [ 360105.000000000174623, 6531355.0 ], [ 360104.999999999417923, 6531475.000000001862645 ], [ 360134.999999999476131, 6531475.0 ], [ 360134.999999999534339, 6531505.0 ], [ 360164.999999999767169, 6531505.0 ], [ 360165.000000000465661, 6531625.0 ], [ 360195.000000000523869, 6531625.0 ], [ 360195.000000000349246, 6531685.0 ], [ 360165.000000000116415, 6531685.000000000931323 ], [ 360165.0, 6531745.0 ], [ 360195.000000000465661, 6531745.000000000931323 ], [ 360194.999999999883585, 6531955.0 ], [ 360165.000000000232831, 6531955.0 ], [ 360165.000000000349246, 6532075.0 ], [ 360134.999999999708962, 6532075.0 ], [ 360135.000000000349246, 6532134.999999999068677 ], [ 360165.000000000116415, 6532135.0 ], [ 360164.999999999767169, 6532164.999999999068677 ], [ 360194.999999999883585, 6532165.0 ], [ 360194.999999999767169, 6532195.0 ], [ 360225.000000000407454, 6532195.0 ], [ 360255.000000000407454, 6532195.0 ], [ 360254.999999999534339, 6532225.0 ], [ 360285.000000000116415, 6532225.000000000931323 ], [ 360284.999999999825377, 6532255.0 ], [ 360315.0, 6532255.0 ], [ 360315.000000000582077, 6532285.0 ], [ 360345.000000000349246, 6532285.0 ], [ 360344.999999999883585, 6532345.0 ], [ 360374.999999999941792, 6532345.000000000931323 ], [ 360375.0, 6532435.0 ], [ 360405.000000000232831, 6532435.0 ], [ 360405.000000000465661, 6532375.0 ], [ 360435.0, 6532375.0 ], [ 360434.999999999650754, 6532345.0 ], [ 360554.999999999534339, 6532345.0 ], [ 360555.000000000582077, 6532375.0 ], [ 360585.000000000349246, 6532375.0 ], [ 360615.000000000523869, 6532375.0 ], [ 360614.999999999534339, 6532435.0 ], [ 360644.999999999883585, 6532435.0 ], [ 360645.000000000523869, 6532465.0 ], [ 360675.000000000116415, 6532465.0 ], [ 360675.000000000523869, 6532615.000000001862645 ], [ 360704.999999999650754, 6532615.000000001862645 ], [ 360704.999999999767169, 6532705.0 ], [ 360735.000000000232831, 6532705.0 ], [ 360735.000000000116415, 6532735.0 ], [ 360764.999999999650754, 6532735.0 ], [ 360764.999999999767169, 6532885.0 ], [ 360795.000000000232831, 6532885.0 ], [ 360794.999999999825377, 6532975.0 ], [ 360825.000000000349246, 6532975.000000000931323 ], [ 360824.999999999417923, 6533125.0 ], [ 360855.000000000582077, 6533125.0 ], [ 360854.999999999592546, 6533245.000000001862645 ], [ 360885.0, 6533245.0 ], [ 360884.999999999534339, 6533394.999999999068677 ], [ 360915.000000000465661, 6533395.0 ], [ 360914.999999999417923, 6533455.0 ], [ 360944.999999999883585, 6533455.000000000931323 ], [ 360945.000000000232831, 6533545.0 ], [ 360974.999999999883585, 6533545.0 ], [ 360974.999999999941792, 6533635.0 ], [ 361005.000000000582077, 6533635.000000000931323 ], [ 361004.999999999417923, 6533665.000000000931323 ], [ 361035.000000000582077, 6533665.0 ], [ 361035.0, 6533725.0 ], [ 361065.000000000116415, 6533725.0 ], [ 361064.999999999534339, 6533755.0 ], [ 361125.000000000174623, 6533755.000000000931323 ], [ 361154.999999999767169, 6533755.000000000931323 ], [ 361154.999999999941792, 6533785.0 ], [ 361185.000000000465661, 6533785.0 ], [ 361184.999999999592546, 6533815.0 ], [ 361215.000000000058208, 6533815.0 ], [ 361214.999999999417923, 6533845.0 ], [ 361244.999999999883585, 6533845.0 ], [ 361244.999999999650754, 6533875.0 ], [ 361275.000000000349246, 6533875.0 ], [ 361275.000000000465661, 6533905.0 ], [ 361305.000000000232831, 6533905.0 ], [ 361304.999999999825377, 6533935.0 ], [ 361335.0, 6533934.999999999068677 ], [ 361335.000000000291038, 6533964.999999999068677 ], [ 361364.999999999767169, 6533965.0 ], [ 361364.999999999592546, 6534025.0 ], [ 361395.000000000582077, 6534025.0 ], [ 361395.000000000232831, 6534055.000000000931323 ], [ 361424.999999999650754, 6534055.000000000931323 ], [ 361425.000000000407454, 6534085.0 ] ], [ [ 360915.000000000465661, 6532975.0 ], [ 360915.000000000116415, 6532885.0 ], [ 360945.000000000465661, 6532885.0 ], [ 360945.000000000640284, 6532975.0 ], [ 360915.000000000465661, 6532975.0 ] ] ] ] } },
{ "type": "Feature", "properties": { "fid": 71.0, "DN": 1.0 }, "geometry": { "type": "MultiPolygon", "coordinates": [ [ [ [ 357705.0, 6523345.0 ], [ 357734.999999999417923, 6523345.0 ], [ 357735.0, 6523255.0 ], [ 357765.000000000465661, 6523255.000000000931323 ], [ 357765.000000000698492, 6523225.0 ], [ 357795.000000000582077, 6523224.999999999068677 ], [ 357795.000000000582077, 6523164.999999999068677 ], [ 357824.999999999417923, 6523164.999999999068677 ], [ 357824.999999999417923, 6523135.0 ], [ 357794.999999999883585, 6523134.999999999068677 ], [ 357765.000000000349246, 6523135.0 ], [ 357765.000000000465661, 6523165.0 ], [ 357735.000000000465661, 6523165.0 ], [ 357734.999999999534339, 6523135.000000001862645 ], [ 357704.999999999883585, 6523135.0 ], [ 357675.000000000465661, 6523135.0 ], [ 357674.999999999883585, 6523105.000000001862645 ], [ 357644.999999999534339, 6523105.0 ], [ 357615.000000000465661, 6523105.0 ], [ 357615.000000000058208, 6523075.0 ], [ 357584.999999999941792, 6523075.0 ], [ 357554.999999999941792, 6523075.000000001862645 ], [ 357554.999999999592546, 6523015.0 ], [ 357524.999999999417923, 6523015.0 ], [ 357524.999999999417923, 6522985.0 ], [ 357495.000000000232831, 6522985.000000000931323 ], [ 357255.000000000232831, 6522985.0 ], [ 357255.000000000116415, 6522955.0 ], [ 357225.000000000349246, 6522955.000000000931323 ], [ 357224.999999999883585, 6522925.0 ], [ 357194.999999999417923, 6522925.0 ], [ 357195.000000000582077, 6522835.0 ], [ 357165.000000000407454, 6522835.0 ], [ 357164.999999999883585, 6522955.000000000931323 ], [ 357194.999999999767169, 6522955.0 ], [ 357195.0, 6523015.0 ], [ 357224.999999999592546, 6523015.0 ], [ 357254.999999999825377, 6523015.0 ], [ 357255.000000000116415, 6523045.0 ], [ 357285.000000000116415, 6523045.0 ], [ 357285.000000000116415, 6523075.0 ], [ 357494.999999999534339, 6523075.0 ], [ 357525.000000000232831, 6523075.0 ], [ 357524.999999999650754, 6523105.0 ], [ 357555.000000000465661, 6523105.0 ], [ 357554.999999999417923, 6523135.0 ], [ 357585.000000000523869, 6523135.0 ], [ 357614.999999999417923, 6523135.0 ], [ 357614.999999999417923, 6523165.0 ], [ 357644.999999999941792, 6523164.999999999068677 ], [ 357644.999999999767169, 6523195.0 ], [ 357674.999999999650754, 6523195.0 ], [ 357674.999999999417923, 6523285.0 ], [ 357704.999999999650754, 6523285.0 ], [ 357705.0, 6523345.0 ] ] ] ] } },
{ "type": "Feature", "properties": { "fid": 72.0, "DN": 1.0 }, "geometry": { "type": "MultiPolygon", "coordinates": [ [ [ [ 356594.999999999708962, 6522865.0 ], [ 356685.000000000232831, 6522865.0 ], [ 356684.999999999534339, 6522835.0 ], [ 356594.999999999883585, 6522835.0 ], [ 356594.999999999708962, 6522865.0 ] ] ] ] } },
{ "type": "Feature", "properties": { "fid": 73.0, "DN": 1.0 }, "geometry": { "type": "MultiPolygon", "coordinates": [ [ [ [ 356475.000000000058208, 6522835.0 ], [ 356565.000000000582077, 6522835.0 ], [ 356565.000000000465661, 6522805.000000000931323 ], [ 356534.999999999650754, 6522805.0 ], [ 356535.000000000232831, 6522775.0 ], [ 356475.000000000582077, 6522775.0 ], [ 356475.000000000058208, 6522835.0 ] ] ] ] } },
{ "type": "Feature", "properties": { "fid": 74.0, "DN": 1.0 }, "geometry": { "type": "MultiPolygon", "coordinates": [ [ [ [ 356715.000000000116415, 6522835.0 ], [ 356744.999999999534339, 6522835.0 ], [ 356745.000000000116415, 6522805.0 ], [ 356714.999999999534339, 6522805.0 ], [ 356715.000000000116415, 6522835.0 ] ] ] ] } },
{ "type": "Feature", "properties": { "fid": 76.0, "DN": 1.0 }, "geometry": { "type": "MultiPolygon", "coordinates": [ [ [ [ 356775.000000000349246, 6522805.000000000931323 ], [ 356835.0, 6522805.0 ], [ 356835.000000000465661, 6522775.000000000931323 ], [ 356774.999999999767169, 6522775.0 ], [ 356775.000000000349246, 6522805.000000000931323 ] ] ] ] } },
{ "type": "Feature", "properties": { "fid": 79.0, "DN": 1.0 }, "geometry": { "type": "MultiPolygon", "coordinates": [ [ [ [ 357195.000000000582077, 6522835.0 ], [ 357224.999999999767169, 6522835.0 ], [ 357224.999999999650754, 6522775.0 ], [ 357195.000000000116415, 6522775.0 ], [ 357195.000000000232831, 6522715.0 ], [ 356925.000000000465661, 6522715.0 ], [ 356924.999999999767169, 6522745.0 ], [ 356835.0, 6522745.0 ], [ 356835.000000000465661, 6522775.000000000931323 ], [ 356924.999999999650754, 6522775.0 ], [ 356954.999999999534339, 6522775.0 ], [ 356955.000000000582077, 6522805.000000000931323 ], [ 356985.000000000349246, 6522805.0 ], [ 356985.000000000349246, 6522745.0 ], [ 357105.000000000582077, 6522745.0 ], [ 357105.000000000232831, 6522775.0 ], [ 357135.000000000407454, 6522775.0 ], [ 357134.999999999417923, 6522805.000000000931323 ], [ 357164.999999999534339, 6522805.0 ], [ 357194.999999999825377, 6522805.0 ], [ 357195.000000000582077, 6522835.0 ] ] ] ] } },
{ "type": "Feature", "properties": { "fid": 81.0, "DN": 1.0 }, "geometry": { "type": "MultiPolygon", "coordinates": [ [ [ [ 356444.999999999825377, 6522775.0 ], [ 356475.000000000582077, 6522775.0 ], [ 356475.000000000349246, 6522715.0 ], [ 356444.999999999534339, 6522715.0 ], [ 356445.000000000349246, 6522685.0 ], [ 356414.999999999883585, 6522685.0 ], [ 356414.999999999883585, 6522655.000000000931323 ], [ 356384.999999999767169, 6522655.0 ], [ 356385.000000000349246, 6522715.0 ], [ 356414.999999999825377, 6522715.0 ], [ 356414.999999999650754, 6522745.0 ], [ 356444.999999999708962, 6522745.0 ], [ 356444.999999999825377, 6522775.0 ] ] ] ] } },
{ "type": "Feature", "properties": { "fid": 82.0, "DN": 1.0 }, "geometry": { "type": "MultiPolygon", "coordinates": [ [ [ [ 356354.999999999767169, 6522655.0 ], [ 356384.999999999767169, 6522655.0 ], [ 356385.0, 6522625.0 ], [ 356355.000000000116415, 6522625.0 ], [ 356354.999999999767169, 6522655.0 ] ] ] ] } },
{ "type": "Feature", "properties": { "fid": 84.0, "DN": 1.0 }, "geometry": { "type": "MultiPolygon", "coordinates": [ [ [ [ 356325.000000000291038, 6522625.0 ], [ 356355.000000000116415, 6522625.0 ], [ 356355.000000000349246, 6522595.0 ], [ 356324.999999999417923, 6522595.0 ], [ 356325.000000000291038, 6522625.0 ] ] ] ] } }
]
}
