{
"type": "FeatureCollection",
"name": "puntos",
"crs": { "type": "name", "properties": { "name": "urn:ogc:def:crs:EPSG::32720" } },
"features": [
{ "type": "Feature", "properties": { "puntos": "Urbano", "id": 1 }, "geometry": { "type": "Point", "coordinates": [ 358252.0, 6523817.0 ] } },
{ "type": "Feature", "properties": { "puntos": "Agua", "id": 2 }, "geometry": { "type": "Point", "coordinates": [ 359691.0, 6526540.0 ] } },
{ "type": "Feature", "properties": { "puntos": "Vegetación", "id": 3 }, "geometry": { "type": "Point", "coordinates": [ 361951.0, 6526078.0 ] } }
]
}
