{
"type": "FeatureCollection",
"name": "san_roque",
"crs": { "type": "name", "properties": { "name": "urn:ogc:def:crs:EPSG::32620" } },
"features": [
{ "type": "Feature", "properties": { "fid": 21.0, "DN": 1.0 }, "geometry": { "type": "MultiPolygon", "coordinates": [ [ [ [ 361935.0, -3465255.0 ], [ 361965.0, -3465255.0 ], [ 361965.0, -3465315.0 ], [ 361935.0, -3465315.0 ], [ 361935.0, -3465255.0 ] ] ] ] } },
{ "type": "Feature", "properties": { "fid": 22.0, "DN": 1.0 }, "geometry": { "type": "MultiPolygon", "coordinates": [ [ [ [ 361905.0, -3465315.0 ], [ 361935.0, -3465315.0 ], [ 361935.0, -3465375.0 ], [ 361905.0, -3465375.0 ], [ 361905.0, -3465315.0 ] ] ] ] } },
{ "type": "Feature", "properties": { "fid": 23.0, "DN": 1.0 }, "geometry": { "type": "MultiPolygon", "coordinates": [ [ [ [ 361875.0, -3465375.0 ], [ 361905.0, -3465375.0 ], [ 361905.0, -3465435.0 ], [ 361875.0, -3465435.0 ], [ 361875.0, -3465465.0 ], [ 361845.0, -3465465.0 ], [ 361845.0, -3465525.0 ], [ 361815.0, -3465525.0 ], [ 361815.0, -3465555.0 ], [ 361785.0, -3465555.0 ], [ 361785.0, -3465615.0 ], [ 361755.0, -3465615.0 ], [ 361755.0, -3465675.0 ], [ 361725.0, -3465675.0 ], [ 361725.0, -3465705.0 ], [ 361695.0, -3465705.0 ], [ 361695.0, -3465735.0 ], [ 361665.0, -3465735.0 ], [ 361665.0, -3465765.0 ], [ 361635.0, -3465765.0 ], [ 361635.0, -3465825.0 ], [ 361605.0, -3465825.0 ], [ 361605.0, -3465855.0 ], [ 361575.0, -3465855.0 ], [ 361575.0, -3465885.0 ], [ 361545.0, -3465885.0 ], [ 361515.0, -3465885.0 ], [ 361515.0, -3465915.0 ], [ 361485.0, -3465915.0 ], [ 361485.0, -3465855.0 ], [ 361515.0, -3465855.0 ], [ 361515.0, -3465825.0 ], [ 361545.0, -3465825.0 ], [ 361545.0, -3465795.0 ], [ 361575.0, -3465795.0 ], [ 361575.0, -3465765.0 ], [ 361605.0, -3465765.0 ], [ 361605.0, -3465735.0 ], [ 361635.0, -3465735.0 ], [ 361635.0, -3465675.0 ], [ 361665.0, -3465675.0 ], [ 361665.0, -3465645.0 ], [ 361695.0, -3465645.0 ], [ 361695.0, -3465615.0 ], [ 361725.0, -3465615.0 ], [ 361725.0, -3465585.0 ], [ 361755.0, -3465585.0 ], [ 361755.0, -3465525.0 ], [ 361785.0, -3465525.0 ], [ 361785.0, -3465495.0 ], [ 361815.0, -3465495.0 ], [ 361815.0, -3465435.0 ], [ 361845.0, -3465435.0 ], [ 361845.0, -3465405.0 ], [ 361875.0, -3465405.0 ], [ 361875.0, -3465375.0 ] ] ] ] } },
{ "type": "Feature", "properties": { "fid": 25.0, "DN": 1.0 }, "geometry": { "type": "MultiPolygon", "coordinates": [ [ [ [ 359745.0, -3467895.0 ], [ 359775.0, -3467895.0 ], [ 359775.0, -3467955.0 ], [ 359745.0, -3467955.0 ], [ 359745.0, -3467895.0 ] ] ] ] } },
{ "type": "Feature", "properties": { "fid": 26.0, "DN": 1.0 }, "geometry": { "type": "MultiPolygon", "coordinates": [ [ [ [ 359775.0, -3467955.0 ], [ 359805.0, -3467955.0 ], [ 359805.0, -3467985.0 ], [ 359775.0, -3467985.0 ], [ 359775.0, -3467955.0 ] ] ] ] } },
{ "type": "Feature", "properties": { "fid": 27.0, "DN": 1.0 }, "geometry": { "type": "MultiPolygon", "coordinates": [ [ [ [ 360015.0, -3467835.0 ], [ 360105.0, -3467835.0 ], [ 360105.0, -3467865.0 ], [ 360075.0, -3467865.0 ], [ 360075.0, -3467925.0 ], [ 360045.0, -3467925.0 ], [ 360045.0, -3467955.0 ], [ 360015.0, -3467955.0 ], [ 360015.0, -3467985.0 ], [ 359985.0, -3467985.0 ], [ 359955.0, -3467985.0 ], [ 359955.0, -3468015.0 ], [ 359805.0, -3468015.0 ], [ 359805.0, -3467985.0 ], [ 359895.0, -3467985.0 ], [ 359925.0, -3467985.0 ], [ 359925.0, -3467955.0 ], [ 359955.0, -3467955.0 ], [ 359985.0, -3467955.0 ], [ 359985.0, -3467865.0 ], [ 360015.0, -3467865.0 ], [ 360015.0, -3467835.0 ] ] ] ] } },
{ "type": "Feature", "properties": { "fid": 30.0, "DN": 1.0 }, "geometry": { "type": "MultiPolygon", "coordinates": [ [ [ [ 360825.0, -3468645.0 ], [ 360855.0, -3468645.0 ], [ 360855.0, -3468705.0 ], [ 360825.0, -3468705.0 ], [ 360825.0, -3468645.0 ] ] ] ] } },
{ "type": "Feature", "properties": { "fid": 32.0, "DN": 1.0 }, "geometry": { "type": "MultiPolygon", "coordinates": [ [ [ [ 360015.0, -3468735.0 ], [ 360045.0, -3468735.0 ], [ 360045.0, -3468765.0 ], [ 360015.0, -3468765.0 ], [ 360015.0, -3468735.0 ] ] ] ] } },
{ "type": "Feature", "properties": { "fid": 34.0, "DN": 1.0 }, "geometry": { "type": "MultiPolygon", "coordinates": [ [ [ [ 359445.0, -3469215.0 ], [ 359535.0, -3469215.0 ], [ 359535.0, -3469245.0 ], [ 359445.0, -3469245.0 ], [ 359445.0, -3469215.0 ] ] ] ] } },
{ "type": "Feature", "properties": { "fid": 35.0, "DN": 1.0 }, "geometry": { "type": "MultiPolygon", "coordinates": [ [ [ [ 359535.0, -3470115.0 ], [ 359595.0, -3470115.0 ], [ 359595.0, -3470145.0 ], [ 359535.0, -3470145.0 ], [ 359535.0, -3470115.0 ] ] ] ] } },
{ "type": "Feature", "properties": { "fid": 41.0, "DN": 1.0 }, "geometry": { "type": "MultiPolygon", "coordinates": [ [ [ [ 361605.0, -3473145.0 ], [ 361635.0, -3473145.0 ], [ 361635.0, -3473175.0 ], [ 361605.0, -3473175.0 ], [ 361605.0, -3473145.0 ] ] ] ] } },
{ "type": "Feature", "properties": { "fid": 42.0, "DN": 1.0 }, "geometry": { "type": "MultiPolygon", "coordinates": [ [ [ [ 360735.0, -3473715.0 ], [ 360765.0, -3473715.0 ], [ 360765.0, -3473745.0 ], [ 360735.0, -3473745.0 ], [ 360735.0, -3473715.0 ] ] ] ] } },
{ "type": "Feature", "properties": { "fid": 59.0, "DN": 1.0 }, "geometry": { "type": "MultiPolygon", "coordinates": [ [ [ [ 361425.0, -3465915.0 ], [ 361485.0, -3465915.0 ], [ 361485.0, -3465975.0 ], [ 361455.0, -3465975.0 ], [ 361455.0, -3466005.0 ], [ 361425.0, -3466005.0 ], [ 361425.0, -3466035.0 ], [ 361395.0, -3466035.0 ], [ 361395.0, -3466065.0 ], [ 361365.0, -3466065.0 ], [ 361365.0, -3466125.0 ], [ 361335.0, -3466125.0 ], [ 361305.0, -3466125.0 ], [ 361305.0, -3466155.0 ], [ 361275.0, -3466155.0 ], [ 361275.0, -3466215.0 ], [ 361245.0, -3466215.0 ], [ 361245.0, -3466245.0 ], [ 361215.0, -3466245.0 ], [ 361215.0, -3466275.0 ], [ 361185.0, -3466275.0 ], [ 361185.0, -3466305.0 ], [ 361155.0, -3466305.0 ], [ 361155.0, -3466335.0 ], [ 361125.0, -3466335.0 ], [ 361125.0, -3466365.0 ], [ 361095.0, -3466365.0 ], [ 361095.0, -3466425.0 ], [ 361065.0, -3466425.0 ], [ 361065.0, -3466455.0 ], [ 361035.0, -3466455.0 ], [ 361035.0, -3466485.0 ], [ 361005.0, -3466485.0 ], [ 361005.0, -3466545.0 ], [ 360975.0, -3466545.0 ], [ 360975.0, -3466605.0 ], [ 360945.0, -3466605.0 ], [ 360945.0, -3466695.0 ], [ 360915.0, -3466695.0 ], [ 360915.0, -3466785.0 ], [ 360945.0, -3466785.0 ], [ 360945.0, -3466905.0 ], [ 360975.0, -3466905.0 ], [ 360975.0, -3466935.0 ], [ 361065.0, -3466935.0 ], [ 361065.0, -3466875.0 ], [ 361035.0, -3466875.0 ], [ 361035.0, -3466845.0 ], [ 361065.0, -3466845.0 ], [ 361095.0, -3466845.0 ], [ 361095.0, -3466815.0 ], [ 361125.0, -3466815.0 ], [ 361155.0, -3466815.0 ], [ 361155.0, -3466755.0 ], [ 361185.0, -3466755.0 ], [ 361185.0, -3466725.0 ], [ 361275.0, -3466725.0 ], [ 361275.0, -3466755.0 ], [ 361245.0, -3466755.0 ], [ 361245.0, -3466845.0 ], [ 361275.0, -3466845.0 ], [ 361275.0, -3466905.0 ], [ 361245.0, -3466905.0 ], [ 361245.0, -3466935.0 ], [ 361215.0, -3466935.0 ], [ 361215.0, -3466905.0 ], [ 361185.0, -3466905.0 ], [ 361185.0, -3466875.0 ], [ 361155.0, -3466875.0 ], [ 361155.0, -3466965.0 ], [ 361185.0, -3466965.0 ], [ 361185.0, -3467055.0 ], [ 361215.0, -3467055.0 ], [ 361215.0, -3467115.0 ], [ 361185.0, -3467115.0 ], [ 361185.0, -3467175.0 ], [ 361155.0, -3467175.0 ], [ 361155.0, -3467295.0 ], [ 361125.0, -3467295.0 ], [ 361125.0, -3467355.0 ], [ 361095.0, -3467355.0 ], [ 361095.0, -3467415.0 ], [ 361065.0, -3467415.0 ], [ 361065.0, -3467595.0 ], [ 361035.0, -3467595.0 ], [ 361035.0, -3467625.0 ], [ 361005.0, -3467625.0 ], [ 361005.0, -3467655.0 ], [ 360975.0, -3467655.0 ], [ 360945.0, -3467655.0 ], [ 360945.0, -3467745.0 ], [ 361005.0, -3467745.0 ], [ 361005.0, -3467775.0 ], [ 360975.0, -3467775.0 ], [ 360975.0, -3467805.0 ], [ 360945.0, -3467805.0 ], [ 360945.0, -3467835.0 ], [ 360915.0, -3467835.0 ], [ 360915.0, -3467925.0 ], [ 360885.0, -3467925.0 ], [ 360885.0, -3467955.0 ], [ 360855.0, -3467955.0 ], [ 360855.0, -3468045.0 ], [ 360825.0, -3468045.0 ], [ 360825.0, -3468165.0 ], [ 360795.0, -3468165.0 ], [ 360795.0, -3468285.0 ], [ 360825.0, -3468285.0 ], [ 360825.0, -3468375.0 ], [ 360855.0, -3468375.0 ], [ 360855.0, -3468555.0 ], [ 360825.0, -3468555.0 ], [ 360825.0, -3468615.0 ], [ 360795.0, -3468615.0 ], [ 360795.0, -3468705.0 ], [ 360765.0, -3468705.0 ], [ 360765.0, -3468735.0 ], [ 360735.0, -3468735.0 ], [ 360735.0, -3468795.0 ], [ 360705.0, -3468795.0 ], [ 360705.0, -3468885.0 ], [ 360675.0, -3468885.0 ], [ 360675.0, -3469005.0 ], [ 360645.0, -3469005.0 ], [ 360645.0, -3469095.0 ], [ 360615.0, -3469095.0 ], [ 360615.0, -3469275.0 ], [ 360585.0, -3469275.0 ], [ 360585.0, -3469575.0 ], [ 360615.0, -3469575.0 ], [ 360615.0, -3469635.0 ], [ 360645.0, -3469635.0 ], [ 360645.0, -3469755.0 ], [ 360675.0, -3469755.0 ], [ 360675.0, -3469815.0 ], [ 360705.0, -3469815.0 ], [ 360705.0, -3469875.0 ], [ 360735.0, -3469875.0 ], [ 360735.0, -3469935.0 ], [ 360765.0, -3469935.0 ], [ 360765.0, -3469965.0 ], [ 360795.0, -3469965.0 ], [ 360795.0, -3470025.0 ], [ 360825.0, -3470025.0 ], [ 360825.0, -3470055.0 ], [ 360855.0, -3470055.0 ], [ 360855.0, -3470085.0 ], [ 360885.0, -3470085.0 ], [ 360885.0, -3470115.0 ], [ 360915.0, -3470115.0 ], [ 360915.0, -3470145.0 ], [ 360945.0, -3470145.0 ], [ 360945.0, -3470175.0 ], [ 360975.0, -3470175.0 ], [ 360975.0, -3470205.0 ], [ 361005.0, -3470205.0 ], [ 361005.0, -3470235.0 ], [ 361035.0, -3470235.0 ], [ 361035.0, -3470265.0 ], [ 361065.0, -3470265.0 ], [ 361065.0, -3470295.0 ], [ 361095.0, -3470295.0 ], [ 361095.0, -3470325.0 ], [ 361155.0, -3470325.0 ], [ 361155.0, -3470355.0 ], [ 361185.0, -3470355.0 ], [ 361185.0, -3470385.0 ], [ 361215.0, -3470385.0 ], [ 361215.0, -3470415.0 ], [ 361245.0, -3470415.0 ], [ 361245.0, -3470445.0 ], [ 361275.0, -3470445.0 ], [ 361275.0, -3470475.0 ], [ 361305.0, -3470475.0 ], [ 361305.0, -3470505.0 ], [ 361335.0, -3470505.0 ], [ 361335.0, -3470535.0 ], [ 361365.0, -3470535.0 ], [ 361365.0, -3470595.0 ], [ 361395.0, -3470595.0 ], [ 361395.0, -3470655.0 ], [ 361425.0, -3470655.0 ], [ 361425.0, -3470715.0 ], [ 361455.0, -3470715.0 ], [ 361455.0, -3470745.0 ], [ 361485.0, -3470745.0 ], [ 361485.0, -3470775.0 ], [ 361515.0, -3470775.0 ], [ 361515.0, -3470805.0 ], [ 361545.0, -3470805.0 ], [ 361545.0, -3470835.0 ], [ 361605.0, -3470835.0 ], [ 361605.0, -3470865.0 ], [ 361665.0, -3470865.0 ], [ 361665.0, -3470895.0 ], [ 361695.0, -3470895.0 ], [ 361695.0, -3470925.0 ], [ 361725.0, -3470925.0 ], [ 361725.0, -3470955.0 ], [ 361785.0, -3470955.0 ], [ 361785.0, -3470985.0 ], [ 361815.0, -3470985.0 ], [ 361815.0, -3471015.0 ], [ 361845.0, -3471015.0 ], [ 361845.0, -3471045.0 ], [ 361875.0, -3471045.0 ], [ 361875.0, -3471075.0 ], [ 361905.0, -3471075.0 ], [ 361905.0, -3471105.0 ], [ 361935.0, -3471105.0 ], [ 361935.0, -3471165.0 ], [ 361965.0, -3471165.0 ], [ 361965.0, -3471195.0 ], [ 361995.0, -3471195.0 ], [ 361995.0, -3471255.0 ], [ 362055.0, -3471255.0 ], [ 362055.0, -3471285.0 ], [ 362085.0, -3471285.0 ], [ 362085.0, -3471375.0 ], [ 362115.0, -3471375.0 ], [ 362115.0, -3471465.0 ], [ 362145.0, -3471465.0 ], [ 362145.0, -3471525.0 ], [ 362175.0, -3471525.0 ], [ 362175.0, -3471555.0 ], [ 362205.0, -3471555.0 ], [ 362205.0, -3471645.0 ], [ 362235.0, -3471645.0 ], [ 362235.0, -3471765.0 ], [ 362295.0, -3471765.0 ], [ 362295.0, -3471795.0 ], [ 362325.0, -3471795.0 ], [ 362325.0, -3471855.0 ], [ 362355.0, -3471855.0 ], [ 362355.0, -3471915.0 ], [ 362385.0, -3471915.0 ], [ 362385.0, -3471945.0 ], [ 362475.0, -3471945.0 ], [ 362475.0, -3471975.0 ], [ 362715.0, -3471975.0 ], [ 362715.0, -3471945.0 ], [ 362775.0, -3471945.0 ], [ 362805.0, -3471945.0 ], [ 362805.0, -3471915.0 ], [ 362895.0, -3471915.0 ], [ 362925.0, -3471915.0 ], [ 362925.0, -3471885.0 ], [ 362955.0, -3471885.0 ], [ 362955.0, -3471855.0 ], [ 363225.0, -3471855.0 ], [ 363255.0, -3471855.0 ], [ 363255.0, -3471825.0 ], [ 363375.0, -3471825.0 ], [ 363375.0, -3471855.0 ], [ 363465.0, -3471855.0 ], [ 363465.0, -3471885.0 ], [ 363645.0, -3471885.0 ], [ 363645.0, -3471855.0 ], [ 363675.0, -3471855.0 ], [ 363675.0, -3471825.0 ], [ 363765.0, -3471825.0 ], [ 363765.0, -3471885.0 ], [ 363735.0, -3471885.0 ], [ 363735.0, -3471915.0 ], [ 363705.0, -3471915.0 ], [ 363645.0, -3471915.0 ], [ 363645.0, -3471945.0 ], [ 363615.0, -3471945.0 ], [ 363615.0, -3471975.0 ], [ 363585.0, -3471975.0 ], [ 363555.0, -3471975.0 ], [ 363555.0, -3472005.0 ], [ 363525.0, -3472005.0 ], [ 363465.0, -3472005.0 ], [ 363465.0, -3472035.0 ], [ 363435.0, -3472035.0 ], [ 363435.0, -3472065.0 ], [ 363405.0, -3472065.0 ], [ 363405.0, -3472095.0 ], [ 363375.0, -3472095.0 ], [ 363375.0, -3472185.0 ], [ 363405.0, -3472185.0 ], [ 363405.0, -3472215.0 ], [ 363375.0, -3472215.0 ], [ 363375.0, -3472245.0 ], [ 363345.0, -3472245.0 ], [ 363345.0, -3472185.0 ], [ 363315.0, -3472185.0 ], [ 363315.0, -3472155.0 ], [ 363285.0, -3472155.0 ], [ 363285.0, -3472125.0 ], [ 363255.0, -3472125.0 ], [ 363255.0, -3472095.0 ], [ 363285.0, -3472095.0 ], [ 363285.0, -3472035.0 ], [ 363255.0, -3472035.0 ], [ 363255.0, -3471975.0 ], [ 363015.0, -3471975.0 ], [ 363015.0, -3472005.0 ], [ 362985.0, -3472005.0 ], [ 362865.0, -3472005.0 ], [ 362865.0, -3472035.0 ], [ 362835.0, -3472035.0 ], [ 362745.0, -3472035.0 ], [ 362745.0, -3472065.0 ], [ 362715.0, -3472065.0 ], [ 362595.0, -3472065.0 ], [ 362595.0, -3472095.0 ], [ 362565.0, -3472095.0 ], [ 362475.0, -3472095.0 ], [ 362475.0, -3472125.0 ], [ 362445.0, -3472125.0 ], [ 362445.0, -3472185.0 ], [ 362415.0, -3472185.0 ], [ 362415.0, -3472245.0 ], [ 362385.0, -3472245.0 ], [ 362385.0, -3472215.0 ], [ 362355.0, -3472215.0 ], [ 362355.0, -3472185.0 ], [ 362265.0, -3472185.0 ], [ 362265.0, -3472215.0 ], [ 362235.0, -3472215.0 ], [ 362235.0, -3472275.0 ], [ 362205.0, -3472275.0 ], [ 362205.0, -3472335.0 ], [ 362175.0, -3472335.0 ], [ 362175.0, -3472395.0 ], [ 362145.0, -3472395.0 ], [ 362145.0, -3472275.0 ], [ 362025.0, -3472275.0 ], [ 362025.0, -3472305.0 ], [ 361995.0, -3472305.0 ], [ 361965.0, -3472305.0 ], [ 361965.0, -3472335.0 ], [ 361935.0, -3472335.0 ], [ 361935.0, -3472395.0 ], [ 361905.0, -3472395.0 ], [ 361905.0, -3472425.0 ], [ 361935.0, -3472425.0 ], [ 361935.0, -3472455.0 ], [ 361905.0, -3472455.0 ], [ 361875.0, -3472455.0 ], [ 361875.0, -3472605.0 ], [ 361845.0, -3472605.0 ], [ 361785.0, -3472605.0 ], [ 361785.0, -3472665.0 ], [ 361755.0, -3472665.0 ], [ 361755.0, -3472755.0 ], [ 361785.0, -3472755.0 ], [ 361785.0, -3472785.0 ], [ 361755.0, -3472785.0 ], [ 361725.0, -3472785.0 ], [ 361725.0, -3472935.0 ], [ 361755.0, -3472935.0 ], [ 361755.0, -3472965.0 ], [ 361725.0, -3472965.0 ], [ 361725.0, -3472995.0 ], [ 361695.0, -3472995.0 ], [ 361695.0, -3473085.0 ], [ 361665.0, -3473085.0 ], [ 361605.0, -3473085.0 ], [ 361605.0, -3473055.0 ], [ 361635.0, -3473055.0 ], [ 361635.0, -3473025.0 ], [ 361605.0, -3473025.0 ], [ 361605.0, -3472965.0 ], [ 361545.0, -3472965.0 ], [ 361545.0, -3472995.0 ], [ 361515.0, -3472995.0 ], [ 361515.0, -3473055.0 ], [ 361485.0, -3473055.0 ], [ 361485.0, -3473175.0 ], [ 361455.0, -3473175.0 ], [ 361455.0, -3473205.0 ], [ 361485.0, -3473205.0 ], [ 361485.0, -3473235.0 ], [ 361455.0, -3473235.0 ], [ 361425.0, -3473235.0 ], [ 361425.0, -3473325.0 ], [ 361395.0, -3473325.0 ], [ 361395.0, -3473355.0 ], [ 361365.0, -3473355.0 ], [ 361365.0, -3473445.0 ], [ 361335.0, -3473445.0 ], [ 361335.0, -3473475.0 ], [ 361305.0, -3473475.0 ], [ 361305.0, -3473415.0 ], [ 361215.0, -3473415.0 ], [ 361215.0, -3473355.0 ], [ 361095.0, -3473355.0 ], [ 361095.0, -3473385.0 ], [ 361065.0, -3473385.0 ], [ 361065.0, -3473565.0 ], [ 361035.0, -3473565.0 ], [ 361035.0, -3473595.0 ], [ 361065.0, -3473595.0 ], [ 361065.0, -3473625.0 ], [ 361035.0, -3473625.0 ], [ 361035.0, -3473715.0 ], [ 361005.0, -3473715.0 ], [ 361005.0, -3473745.0 ], [ 360945.0, -3473745.0 ], [ 360945.0, -3473715.0 ], [ 360915.0, -3473715.0 ], [ 360915.0, -3473475.0 ], [ 360885.0, -3473475.0 ], [ 360885.0, -3473415.0 ], [ 360825.0, -3473415.0 ], [ 360825.0, -3473445.0 ], [ 360795.0, -3473445.0 ], [ 360765.0, -3473445.0 ], [ 360765.0, -3473475.0 ], [ 360735.0, -3473475.0 ], [ 360705.0, -3473475.0 ], [ 360705.0, -3473505.0 ], [ 360675.0, -3473505.0 ], [ 360675.0, -3473535.0 ], [ 360645.0, -3473535.0 ], [ 360645.0, -3473625.0 ], [ 360675.0, -3473625.0 ], [ 360675.0, -3473655.0 ], [ 360705.0, -3473655.0 ], [ 360705.0, -3473745.0 ], [ 360675.0, -3473745.0 ], [ 360615.0, -3473745.0 ], [ 360615.0, -3473775.0 ], [ 360585.0, -3473775.0 ], [ 360585.0, -3473745.0 ], [ 360555.0, -3473745.0 ], [ 360555.0, -3473685.0 ], [ 360495.0, -3473685.0 ], [ 360495.0, -3473745.0 ], [ 360465.0, -3473745.0 ], [ 360465.0, -3473805.0 ], [ 360495.0, -3473805.0 ], [ 360495.0, -3473865.0 ], [ 360465.0, -3473865.0 ], [ 360465.0, -3473895.0 ], [ 360315.0, -3473895.0 ], [ 360315.0, -3473865.0 ], [ 360255.0, -3473865.0 ], [ 360255.0, -3473895.0 ], [ 360225.0, -3473895.0 ], [ 360135.0, -3473895.0 ], [ 360135.0, -3473955.0 ], [ 360195.0, -3473955.0 ], [ 360195.0, -3473985.0 ], [ 360225.0, -3473985.0 ], [ 360225.0, -3474015.0 ], [ 360285.0, -3474015.0 ], [ 360285.0, -3474045.0 ], [ 360315.0, -3474045.0 ], [ 360315.0, -3474105.0 ], [ 360285.0, -3474105.0 ], [ 360195.0, -3474105.0 ], [ 360195.0, -3474135.0 ], [ 360165.0, -3474135.0 ], [ 360135.0, -3474135.0 ], [ 360135.0, -3474165.0 ], [ 360105.0, -3474165.0 ], [ 360075.0, -3474165.0 ], [ 360075.0, -3474195.0 ], [ 360045.0, -3474195.0 ], [ 360045.0, -3474255.0 ], [ 360015.0, -3474255.0 ], [ 360015.0, -3474285.0 ], [ 359985.0, -3474285.0 ], [ 359985.0, -3474315.0 ], [ 359955.0, -3474315.0 ], [ 359955.0, -3474345.0 ], [ 359745.0, -3474345.0 ], [ 359745.0, -3474315.0 ], [ 359685.0, -3474315.0 ], [ 359685.0, -3474345.0 ], [ 359655.0, -3474345.0 ], [ 359655.0, -3474375.0 ], [ 359625.0, -3474375.0 ], [ 359625.0, -3474405.0 ], [ 359595.0, -3474405.0 ], [ 359595.0, -3474435.0 ], [ 359565.0, -3474435.0 ], [ 359475.0, -3474435.0 ], [ 359475.0, -3474465.0 ], [ 359445.0, -3474465.0 ], [ 359445.0, -3474495.0 ], [ 359415.0, -3474495.0 ], [ 359415.0, -3474525.0 ], [ 359385.0, -3474525.0 ], [ 359385.0, -3474555.0 ], [ 359355.0, -3474555.0 ], [ 359355.0, -3474585.0 ], [ 359325.0, -3474585.0 ], [ 359325.0, -3474615.0 ], [ 359295.0, -3474615.0 ], [ 359295.0, -3474645.0 ], [ 359265.0, -3474645.0 ], [ 359235.0, -3474645.0 ], [ 359235.0, -3474675.0 ], [ 359205.0, -3474675.0 ], [ 359115.0, -3474675.0 ], [ 359115.0, -3474705.0 ], [ 359085.0, -3474705.0 ], [ 359055.0, -3474705.0 ], [ 359055.0, -3474735.0 ], [ 359025.0, -3474735.0 ], [ 359025.0, -3474795.0 ], [ 358995.0, -3474795.0 ], [ 358995.0, -3474855.0 ], [ 358965.0, -3474855.0 ], [ 358965.0, -3474885.0 ], [ 358935.0, -3474885.0 ], [ 358935.0, -3474915.0 ], [ 358905.0, -3474915.0 ], [ 358875.0, -3474915.0 ], [ 358875.0, -3474945.0 ], [ 358845.0, -3474945.0 ], [ 358785.0, -3474945.0 ], [ 358785.0, -3474975.0 ], [ 358755.0, -3474975.0 ], [ 358755.0, -3475005.0 ], [ 358725.0, -3475005.0 ], [ 358695.0, -3475005.0 ], [ 358695.0, -3475035.0 ], [ 358665.0, -3475035.0 ], [ 358665.0, -3475065.0 ], [ 358635.0, -3475065.0 ], [ 358635.0, -3475095.0 ], [ 358605.0, -3475095.0 ], [ 358575.0, -3475095.0 ], [ 358575.0, -3475125.0 ], [ 358545.0, -3475125.0 ], [ 358545.0, -3475155.0 ], [ 358515.0, -3475155.0 ], [ 358515.0, -3475125.0 ], [ 358425.0, -3475125.0 ], [ 358425.0, -3475185.0 ], [ 358395.0, -3475185.0 ], [ 358395.0, -3475215.0 ], [ 358365.0, -3475215.0 ], [ 358365.0, -3475275.0 ], [ 358395.0, -3475275.0 ], [ 358395.0, -3475305.0 ], [ 358365.0, -3475305.0 ], [ 358365.0, -3475335.0 ], [ 358335.0, -3475335.0 ], [ 358335.0, -3475395.0 ], [ 358305.0, -3475395.0 ], [ 358305.0, -3475515.0 ], [ 358335.0, -3475515.0 ], [ 358335.0, -3475545.0 ], [ 358365.0, -3475545.0 ], [ 358365.0, -3475665.0 ], [ 358395.0, -3475665.0 ], [ 358395.0, -3475725.0 ], [ 358425.0, -3475725.0 ], [ 358425.0, -3475755.0 ], [ 358395.0, -3475755.0 ], [ 358365.0, -3475755.0 ], [ 358365.0, -3475725.0 ], [ 358305.0, -3475725.0 ], [ 358305.0, -3475695.0 ], [ 358245.0, -3475695.0 ], [ 358245.0, -3475725.0 ], [ 358215.0, -3475725.0 ], [ 358215.0, -3475755.0 ], [ 358185.0, -3475755.0 ], [ 358185.0, -3475725.0 ], [ 358125.0, -3475725.0 ], [ 358125.0, -3475755.0 ], [ 358095.0, -3475755.0 ], [ 358095.0, -3475785.0 ], [ 358065.0, -3475785.0 ], [ 358065.0, -3475845.0 ], [ 358035.0, -3475845.0 ], [ 358035.0, -3475875.0 ], [ 358005.0, -3475875.0 ], [ 358005.0, -3475905.0 ], [ 357975.0, -3475905.0 ], [ 357975.0, -3475965.0 ], [ 357945.0, -3475965.0 ], [ 357945.0, -3475995.0 ], [ 357915.0, -3475995.0 ], [ 357915.0, -3476025.0 ], [ 357885.0, -3476025.0 ], [ 357855.0, -3476025.0 ], [ 357855.0, -3476115.0 ], [ 357825.0, -3476115.0 ], [ 357825.0, -3476145.0 ], [ 357795.0, -3476145.0 ], [ 357795.0, -3476175.0 ], [ 357765.0, -3476175.0 ], [ 357765.0, -3476295.0 ], [ 357795.0, -3476295.0 ], [ 357795.0, -3476355.0 ], [ 357765.0, -3476355.0 ], [ 357735.0, -3476355.0 ], [ 357735.0, -3476385.0 ], [ 357705.0, -3476385.0 ], [ 357705.0, -3476415.0 ], [ 357675.0, -3476415.0 ], [ 357675.0, -3476445.0 ], [ 357645.0, -3476445.0 ], [ 357645.0, -3476505.0 ], [ 357675.0, -3476505.0 ], [ 357675.0, -3476535.0 ], [ 357705.0, -3476535.0 ], [ 357705.0, -3476655.0 ], [ 357675.0, -3476655.0 ], [ 357675.0, -3476595.0 ], [ 357645.0, -3476595.0 ], [ 357645.0, -3476565.0 ], [ 357615.0, -3476565.0 ], [ 357615.0, -3476535.0 ], [ 357585.0, -3476535.0 ], [ 357585.0, -3476475.0 ], [ 357555.0, -3476475.0 ], [ 357555.0, -3476445.0 ], [ 357525.0, -3476445.0 ], [ 357525.0, -3476325.0 ], [ 357495.0, -3476325.0 ], [ 357495.0, -3476235.0 ], [ 357525.0, -3476235.0 ], [ 357525.0, -3476205.0 ], [ 357495.0, -3476205.0 ], [ 357495.0, -3476085.0 ], [ 357525.0, -3476085.0 ], [ 357525.0, -3475815.0 ], [ 357555.0, -3475815.0 ], [ 357555.0, -3475785.0 ], [ 357585.0, -3475785.0 ], [ 357585.0, -3475695.0 ], [ 357615.0, -3475695.0 ], [ 357645.0, -3475695.0 ], [ 357645.0, -3475665.0 ], [ 357675.0, -3475665.0 ], [ 357675.0, -3475575.0 ], [ 357705.0, -3475575.0 ], [ 357705.0, -3475515.0 ], [ 357735.0, -3475515.0 ], [ 357735.0, -3475485.0 ], [ 357705.0, -3475485.0 ], [ 357705.0, -3475455.0 ], [ 357735.0, -3475455.0 ], [ 357735.0, -3475425.0 ], [ 357765.0, -3475425.0 ], [ 357765.0, -3475305.0 ], [ 357795.0, -3475305.0 ], [ 357795.0, -3475185.0 ], [ 357825.0, -3475185.0 ], [ 357825.0, -3475125.0 ], [ 357765.0, -3475125.0 ], [ 357765.0, -3475035.0 ], [ 357675.0, -3475035.0 ], [ 357675.0, -3475005.0 ], [ 357645.0, -3475005.0 ], [ 357645.0, -3474975.0 ], [ 357585.0, -3474975.0 ], [ 357585.0, -3474945.0 ], [ 357555.0, -3474945.0 ], [ 357555.0, -3474915.0 ], [ 357525.0, -3474915.0 ], [ 357525.0, -3474885.0 ], [ 357555.0, -3474885.0 ], [ 357555.0, -3474855.0 ], [ 357585.0, -3474855.0 ], [ 357585.0, -3474795.0 ], [ 357615.0, -3474795.0 ], [ 357615.0, -3474855.0 ], [ 357675.0, -3474855.0 ], [ 357675.0, -3474885.0 ], [ 357705.0, -3474885.0 ], [ 357705.0, -3474915.0 ], [ 357765.0, -3474915.0 ], [ 357765.0, -3474945.0 ], [ 357855.0, -3474945.0 ], [ 357855.0, -3474885.0 ], [ 357885.0, -3474885.0 ], [ 357885.0, -3474855.0 ], [ 357915.0, -3474855.0 ], [ 357915.0, -3474795.0 ], [ 357885.0, -3474795.0 ], [ 357885.0, -3474765.0 ], [ 357915.0, -3474765.0 ], [ 357915.0, -3474645.0 ], [ 357945.0, -3474645.0 ], [ 357945.0, -3474585.0 ], [ 357975.0, -3474585.0 ], [ 357975.0, -3474495.0 ], [ 358005.0, -3474495.0 ], [ 358005.0, -3474465.0 ], [ 358035.0, -3474465.0 ], [ 358035.0, -3474315.0 ], [ 358065.0, -3474315.0 ], [ 358065.0, -3474165.0 ], [ 358035.0, -3474165.0 ], [ 358035.0, -3474135.0 ], [ 358065.0, -3474135.0 ], [ 358065.0, -3474105.0 ], [ 358095.0, -3474105.0 ], [ 358095.0, -3474015.0 ], [ 358125.0, -3474015.0 ], [ 358125.0, -3473985.0 ], [ 358155.0, -3473985.0 ], [ 358155.0, -3473895.0 ], [ 358185.0, -3473895.0 ], [ 358185.0, -3473865.0 ], [ 358215.0, -3473865.0 ], [ 358245.0, -3473865.0 ], [ 358245.0, -3473835.0 ], [ 358275.0, -3473835.0 ], [ 358275.0, -3473775.0 ], [ 358245.0, -3473775.0 ], [ 358245.0, -3473745.0 ], [ 358305.0, -3473745.0 ], [ 358335.0, -3473745.0 ], [ 358335.0, -3473715.0 ], [ 358365.0, -3473715.0 ], [ 358365.0, -3473625.0 ], [ 358395.0, -3473625.0 ], [ 358395.0, -3473565.0 ], [ 358425.0, -3473565.0 ], [ 358425.0, -3473505.0 ], [ 358455.0, -3473505.0 ], [ 358455.0, -3473475.0 ], [ 358485.0, -3473475.0 ], [ 358485.0, -3473415.0 ], [ 358515.0, -3473415.0 ], [ 358515.0, -3473385.0 ], [ 358545.0, -3473385.0 ], [ 358545.0, -3473295.0 ], [ 358515.0, -3473295.0 ], [ 358515.0, -3473265.0 ], [ 358455.0, -3473265.0 ], [ 358455.0, -3473235.0 ], [ 358425.0, -3473235.0 ], [ 358425.0, -3473265.0 ], [ 358365.0, -3473265.0 ], [ 358365.0, -3473235.0 ], [ 358395.0, -3473235.0 ], [ 358395.0, -3473205.0 ], [ 358515.0, -3473205.0 ], [ 358515.0, -3473235.0 ], [ 358575.0, -3473235.0 ], [ 358575.0, -3473205.0 ], [ 358605.0, -3473205.0 ], [ 358605.0, -3473085.0 ], [ 358635.0, -3473085.0 ], [ 358635.0, -3472965.0 ], [ 358665.0, -3472965.0 ], [ 358665.0, -3472935.0 ], [ 358695.0, -3472935.0 ], [ 358695.0, -3472875.0 ], [ 358725.0, -3472875.0 ], [ 358725.0, -3472815.0 ], [ 358755.0, -3472815.0 ], [ 358755.0, -3472725.0 ], [ 358785.0, -3472725.0 ], [ 358785.0, -3472695.0 ], [ 358815.0, -3472695.0 ], [ 358815.0, -3472665.0 ], [ 358845.0, -3472665.0 ], [ 358845.0, -3472635.0 ], [ 358875.0, -3472635.0 ], [ 358905.0, -3472635.0 ], [ 358905.0, -3472605.0 ], [ 358935.0, -3472605.0 ], [ 358935.0, -3472545.0 ], [ 358875.0, -3472545.0 ], [ 358875.0, -3472515.0 ], [ 358845.0, -3472515.0 ], [ 358845.0, -3472395.0 ], [ 358875.0, -3472395.0 ], [ 358875.0, -3472245.0 ], [ 358905.0, -3472245.0 ], [ 358905.0, -3472215.0 ], [ 358995.0, -3472215.0 ], [ 358995.0, -3472245.0 ], [ 359025.0, -3472245.0 ], [ 359025.0, -3472275.0 ], [ 359055.0, -3472275.0 ], [ 359055.0, -3472305.0 ], [ 359325.0, -3472305.0 ], [ 359325.0, -3472275.0 ], [ 359355.0, -3472275.0 ], [ 359355.0, -3472245.0 ], [ 359385.0, -3472245.0 ], [ 359385.0, -3472185.0 ], [ 359415.0, -3472185.0 ], [ 359415.0, -3472155.0 ], [ 359445.0, -3472155.0 ], [ 359445.0, -3472095.0 ], [ 359475.0, -3472095.0 ], [ 359475.0, -3471915.0 ], [ 359445.0, -3471915.0 ], [ 359445.0, -3471885.0 ], [ 359355.0, -3471885.0 ], [ 359355.0, -3471825.0 ], [ 359415.0, -3471825.0 ], [ 359415.0, -3471855.0 ], [ 359595.0, -3471855.0 ], [ 359625.0, -3471855.0 ], [ 359625.0, -3471795.0 ], [ 359595.0, -3471795.0 ], [ 359595.0, -3471645.0 ], [ 359505.0, -3471645.0 ], [ 359505.0, -3471615.0 ], [ 359475.0, -3471615.0 ], [ 359475.0, -3471555.0 ], [ 359445.0, -3471555.0 ], [ 359445.0, -3471525.0 ], [ 359385.0, -3471525.0 ], [ 359385.0, -3471465.0 ], [ 359445.0, -3471465.0 ], [ 359445.0, -3471495.0 ], [ 359475.0, -3471495.0 ], [ 359505.0, -3471495.0 ], [ 359505.0, -3471435.0 ], [ 359535.0, -3471435.0 ], [ 359565.0, -3471435.0 ], [ 359565.0, -3471405.0 ], [ 359595.0, -3471405.0 ], [ 359595.0, -3471375.0 ], [ 359625.0, -3471375.0 ], [ 359625.0, -3471345.0 ], [ 359595.0, -3471345.0 ], [ 359595.0, -3471285.0 ], [ 359565.0, -3471285.0 ], [ 359565.0, -3471255.0 ], [ 359535.0, -3471255.0 ], [ 359535.0, -3471225.0 ], [ 359505.0, -3471225.0 ], [ 359505.0, -3471105.0 ], [ 359475.0, -3471105.0 ], [ 359475.0, -3471075.0 ], [ 359505.0, -3471075.0 ], [ 359505.0, -3471045.0 ], [ 359535.0, -3471045.0 ], [ 359535.0, -3470955.0 ], [ 359565.0, -3470955.0 ], [ 359565.0, -3470865.0 ], [ 359595.0, -3470865.0 ], [ 359595.0, -3470835.0 ], [ 359565.0, -3470835.0 ], [ 359565.0, -3470745.0 ], [ 359595.0, -3470745.0 ], [ 359595.0, -3470595.0 ], [ 359625.0, -3470595.0 ], [ 359625.0, -3470505.0 ], [ 359595.0, -3470505.0 ], [ 359595.0, -3470445.0 ], [ 359535.0, -3470445.0 ], [ 359535.0, -3470415.0 ], [ 359565.0, -3470415.0 ], [ 359595.0, -3470415.0 ], [ 359595.0, -3470355.0 ], [ 359625.0, -3470355.0 ], [ 359625.0, -3470295.0 ], [ 359655.0, -3470295.0 ], [ 359655.0, -3470115.0 ], [ 359595.0, -3470115.0 ], [ 359595.0, -3470085.0 ], [ 359625.0, -3470085.0 ], [ 359625.0, -3470055.0 ], [ 359655.0, -3470055.0 ], [ 359685.0, -3470055.0 ], [ 359685.0, -3470025.0 ], [ 359655.0, -3470025.0 ], [ 359655.0, -3469875.0 ], [ 359685.0, -3469875.0 ], [ 359685.0, -3469755.0 ], [ 359715.0, -3469755.0 ], [ 359715.0, -3469665.0 ], [ 359745.0, -3469665.0 ], [ 359745.0, -3469635.0 ], [ 359775.0, -3469635.0 ], [ 359775.0, -3469545.0 ], [ 359745.0, -3469545.0 ], [ 359745.0, -3469485.0 ], [ 359715.0, -3469485.0 ], [ 359715.0, -3469425.0 ], [ 359685.0, -3469425.0 ], [ 359685.0, -3469335.0 ], [ 359655.0, -3469335.0 ], [ 359655.0, -3469305.0 ], [ 359625.0, -3469305.0 ], [ 359625.0, -3469275.0 ], [ 359595.0, -3469275.0 ], [ 359595.0, -3469245.0 ], [ 359655.0, -3469245.0 ], [ 359655.0, -3469275.0 ], [ 359685.0, -3469275.0 ], [ 359685.0, -3469305.0 ], [ 359715.0, -3469305.0 ], [ 359715.0, -3469335.0 ], [ 359745.0, -3469335.0 ], [ 359745.0, -3469395.0 ], [ 359775.0, -3469395.0 ], [ 359775.0, -3469425.0 ], [ 359835.0, -3469425.0 ], [ 359835.0, -3469395.0 ], [ 359865.0, -3469395.0 ], [ 359865.0, -3469365.0 ], [ 359895.0, -3469365.0 ], [ 359895.0, -3469335.0 ], [ 359925.0, -3469335.0 ], [ 359925.0, -3469305.0 ], [ 359955.0, -3469305.0 ], [ 359955.0, -3469245.0 ], [ 359985.0, -3469245.0 ], [ 359985.0, -3469185.0 ], [ 360015.0, -3469185.0 ], [ 360015.0, -3469095.0 ], [ 360045.0, -3469095.0 ], [ 360045.0, -3469035.0 ], [ 360015.0, -3469035.0 ], [ 360015.0, -3468975.0 ], [ 360045.0, -3468975.0 ], [ 360045.0, -3468885.0 ], [ 360075.0, -3468885.0 ], [ 360075.0, -3468795.0 ], [ 360045.0, -3468795.0 ], [ 360045.0, -3468765.0 ], [ 360075.0, -3468765.0 ], [ 360075.0, -3468645.0 ], [ 360105.0, -3468645.0 ], [ 360105.0, -3468525.0 ], [ 360135.0, -3468525.0 ], [ 360135.0, -3468495.0 ], [ 360165.0, -3468495.0 ], [ 360165.0, -3468375.0 ], [ 360195.0, -3468375.0 ], [ 360195.0, -3468315.0 ], [ 360165.0, -3468315.0 ], [ 360165.0, -3468255.0 ], [ 360195.0, -3468255.0 ], [ 360195.0, -3468045.0 ], [ 360165.0, -3468045.0 ], [ 360165.0, -3467925.0 ], [ 360135.0, -3467925.0 ], [ 360135.0, -3467865.0 ], [ 360165.0, -3467865.0 ], [ 360165.0, -3467835.0 ], [ 360195.0, -3467835.0 ], [ 360195.0, -3467805.0 ], [ 360225.0, -3467805.0 ], [ 360255.0, -3467805.0 ], [ 360255.0, -3467775.0 ], [ 360285.0, -3467775.0 ], [ 360285.0, -3467745.0 ], [ 360315.0, -3467745.0 ], [ 360315.0, -3467715.0 ], [ 360345.0, -3467715.0 ], [ 360345.0, -3467655.0 ], [ 360375.0, -3467655.0 ], [ 360375.0, -3467565.0 ], [ 360405.0, -3467565.0 ], [ 360405.0, -3467625.0 ], [ 360435.0, -3467625.0 ], [ 360435.0, -3467655.0 ], [ 360555.0, -3467655.0 ], [ 360555.0, -3467625.0 ], [ 360585.0, -3467625.0 ], [ 360615.0, -3467625.0 ], [ 360615.0, -3467565.0 ], [ 360645.0, -3467565.0 ], [ 360645.0, -3467535.0 ], [ 360675.0, -3467535.0 ], [ 360675.0, -3467385.0 ], [ 360705.0, -3467385.0 ], [ 360705.0, -3467295.0 ], [ 360735.0, -3467295.0 ], [ 360735.0, -3467265.0 ], [ 360765.0, -3467265.0 ], [ 360765.0, -3467115.0 ], [ 360795.0, -3467115.0 ], [ 360795.0, -3467025.0 ], [ 360825.0, -3467025.0 ], [ 360825.0, -3466875.0 ], [ 360855.0, -3466875.0 ], [ 360855.0, -3466755.0 ], [ 360885.0, -3466755.0 ], [ 360885.0, -3466605.0 ], [ 360915.0, -3466605.0 ], [ 360915.0, -3466545.0 ], [ 360945.0, -3466545.0 ], [ 360945.0, -3466455.0 ], [ 360975.0, -3466455.0 ], [ 360975.0, -3466365.0 ], [ 361005.0, -3466365.0 ], [ 361005.0, -3466335.0 ], [ 361035.0, -3466335.0 ], [ 361035.0, -3466275.0 ], [ 361065.0, -3466275.0 ], [ 361065.0, -3466245.0 ], [ 361125.0, -3466245.0 ], [ 361155.0, -3466245.0 ], [ 361155.0, -3466215.0 ], [ 361185.0, -3466215.0 ], [ 361185.0, -3466185.0 ], [ 361215.0, -3466185.0 ], [ 361215.0, -3466155.0 ], [ 361245.0, -3466155.0 ], [ 361245.0, -3466125.0 ], [ 361275.0, -3466125.0 ], [ 361275.0, -3466095.0 ], [ 361305.0, -3466095.0 ], [ 361305.0, -3466065.0 ], [ 361335.0, -3466065.0 ], [ 361335.0, -3466035.0 ], [ 361365.0, -3466035.0 ], [ 361365.0, -3465975.0 ], [ 361395.0, -3465975.0 ], [ 361395.0, -3465945.0 ], [ 361425.0, -3465945.0 ], [ 361425.0, -3465915.0 ] ], [ [ 360915.0, -3467025.0 ], [ 360915.0, -3467115.0 ], [ 360945.0, -3467115.0 ], [ 360945.0, -3467025.0 ], [ 360915.0, -3467025.0 ] ] ] ] } },
{ "type": "Feature", "properties": { "fid": 71.0, "DN": 1.0 }, "geometry": { "type": "MultiPolygon", "coordinates": [ [ [ [ 357705.0, -3476655.0 ], [ 357735.0, -3476655.0 ], [ 357735.0, -3476745.0 ], [ 357765.0, -3476745.0 ], [ 357765.0, -3476775.0 ], [ 357795.0, -3476775.0 ], [ 357795.0, -3476835.0 ], [ 357825.0, -3476835.0 ], [ 357825.0, -3476865.0 ], [ 357795.0, -3476865.0 ], [ 357765.0, -3476865.0 ], [ 357765.0, -3476835.0 ], [ 357735.0, -3476835.0 ], [ 357735.0, -3476865.0 ], [ 357705.0, -3476865.0 ], [ 357675.0, -3476865.0 ], [ 357675.0, -3476895.0 ], [ 357645.0, -3476895.0 ], [ 357615.0, -3476895.0 ], [ 357615.0, -3476925.0 ], [ 357585.0, -3476925.0 ], [ 357555.0, -3476925.0 ], [ 357555.0, -3476985.0 ], [ 357525.0, -3476985.0 ], [ 357525.0, -3477015.0 ], [ 357495.0, -3477015.0 ], [ 357255.0, -3477015.0 ], [ 357255.0, -3477045.0 ], [ 357225.0, -3477045.0 ], [ 357225.0, -3477075.0 ], [ 357195.0, -3477075.0 ], [ 357195.0, -3477165.0 ], [ 357165.0, -3477165.0 ], [ 357165.0, -3477045.0 ], [ 357195.0, -3477045.0 ], [ 357195.0, -3476985.0 ], [ 357225.0, -3476985.0 ], [ 357255.0, -3476985.0 ], [ 357255.0, -3476955.0 ], [ 357285.0, -3476955.0 ], [ 357285.0, -3476925.0 ], [ 357495.0, -3476925.0 ], [ 357525.0, -3476925.0 ], [ 357525.0, -3476895.0 ], [ 357555.0, -3476895.0 ], [ 357555.0, -3476865.0 ], [ 357585.0, -3476865.0 ], [ 357615.0, -3476865.0 ], [ 357615.0, -3476835.0 ], [ 357645.0, -3476835.0 ], [ 357645.0, -3476805.0 ], [ 357675.0, -3476805.0 ], [ 357675.0, -3476715.0 ], [ 357705.0, -3476715.0 ], [ 357705.0, -3476655.0 ] ] ] ] } },
{ "type": "Feature", "properties": { "fid": 72.0, "DN": 1.0 }, "geometry": { "type": "MultiPolygon", "coordinates": [ [ [ [ 356595.0, -3477135.0 ], [ 356685.0, -3477135.0 ], [ 356685.0, -3477165.0 ], [ 356595.0, -3477165.0 ], [ 356595.0, -3477135.0 ] ] ] ] } },
{ "type": "Feature", "properties": { "fid": 73.0, "DN": 1.0 }, "geometry": { "type": "MultiPolygon", "coordinates": [ [ [ [ 356475.0, -3477165.0 ], [ 356565.0, -3477165.0 ], [ 356565.0, -3477195.0 ], [ 356535.0, -3477195.0 ], [ 356535.0, -3477225.0 ], [ 356475.0, -3477225.0 ], [ 356475.0, -3477165.0 ] ] ] ] } },
{ "type": "Feature", "properties": { "fid": 74.0, "DN": 1.0 }, "geometry": { "type": "MultiPolygon", "coordinates": [ [ [ [ 356715.0, -3477165.0 ], [ 356745.0, -3477165.0 ], [ 356745.0, -3477195.0 ], [ 356715.0, -3477195.0 ], [ 356715.0, -3477165.0 ] ] ] ] } },
{ "type": "Feature", "properties": { "fid": 76.0, "DN": 1.0 }, "geometry": { "type": "MultiPolygon", "coordinates": [ [ [ [ 356775.0, -3477195.0 ], [ 356835.0, -3477195.0 ], [ 356835.0, -3477225.0 ], [ 356775.0, -3477225.0 ], [ 356775.0, -3477195.0 ] ] ] ] } },
{ "type": "Feature", "properties": { "fid": 79.0, "DN": 1.0 }, "geometry": { "type": "MultiPolygon", "coordinates": [ [ [ [ 357195.0, -3477165.0 ], [ 357225.0, -3477165.0 ], [ 357225.0, -3477225.0 ], [ 357195.0, -3477225.0 ], [ 357195.0, -3477285.0 ], [ 356925.0, -3477285.0 ], [ 356925.0, -3477255.0 ], [ 356835.0, -3477255.0 ], [ 356835.0, -3477225.0 ], [ 356925.0, -3477225.0 ], [ 356955.0, -3477225.0 ], [ 356955.0, -3477195.0 ], [ 356985.0, -3477195.0 ], [ 356985.0, -3477255.0 ], [ 357105.0, -3477255.0 ], [ 357105.0, -3477225.0 ], [ 357135.0, -3477225.0 ], [ 357135.0, -3477195.0 ], [ 357165.0, -3477195.0 ], [ 357195.0, -3477195.0 ], [ 357195.0, -3477165.0 ] ] ] ] } },
{ "type": "Feature", "properties": { "fid": 81.0, "DN": 1.0 }, "geometry": { "type": "MultiPolygon", "coordinates": [ [ [ [ 356445.0, -3477225.0 ], [ 356475.0, -3477225.0 ], [ 356475.0, -3477285.0 ], [ 356445.0, -3477285.0 ], [ 356445.0, -3477315.0 ], [ 356415.0, -3477315.0 ], [ 356415.0, -3477345.0 ], [ 356385.0, -3477345.0 ], [ 356385.0, -3477285.0 ], [ 356415.0, -3477285.0 ], [ 356415.0, -3477255.0 ], [ 356445.0, -3477255.0 ], [ 356445.0, -3477225.0 ] ] ] ] } },
{ "type": "Feature", "properties": { "fid": 82.0, "DN": 1.0 }, "geometry": { "type": "MultiPolygon", "coordinates": [ [ [ [ 356355.0, -3477345.0 ], [ 356385.0, -3477345.0 ], [ 356385.0, -3477375.0 ], [ 356355.0, -3477375.0 ], [ 356355.0, -3477345.0 ] ] ] ] } },
{ "type": "Feature", "properties": { "fid": 84.0, "DN": 1.0 }, "geometry": { "type": "MultiPolygon", "coordinates": [ [ [ [ 356325.0, -3477375.0 ], [ 356355.0, -3477375.0 ], [ 356355.0, -3477405.0 ], [ 356325.0, -3477405.0 ], [ 356325.0, -3477375.0 ] ] ] ] } }
]
}
